city,state,zip,timezone,longitude,latitude,dst,License,State,Currency
Cove,AR,71937,-6,-94.39398,34.398483,1,QYP-292,SC,usdusd
Drury,MO,65638,-6,-92.33081,36.851944,1,FU-675,SD,usdmxn
Stirrat,WV,25645,-5,-81.902405,37.833202,1,EZP-930,LA,usdusd
Chilton,WI,53014,-6,-88.17626,44.033215,1,HNY-382,GA,usdcad
Three Bridges,NJ,08887,-5,-74.79632,40.52536,1,IOE-466,MO,usdusd
Newry,PA,16665,-5,-78.43508,40.393223,1,IWH-7338,WV,usdmxn
Chatham,PA,19318,-5,-75.81179,39.852406,1,VN-101,KY,usdcad
Winston Salem,NC,27107,-5,-80.18998,36.046215,1,PGW-3499,FL,usdusd
Bohemia,NY,11716,-5,-73.11376,40.770042,1,SZ-347,CT,usdcad
Birmingham,AL,35259,-6,-86.92921,33.54462,1,ST-9938,AR,usdusd
Slanesville,WV,25444,-5,-78.52587,39.412827,1,MUU-0217,CA,usdusd
Cheshire,CT,06410,-5,-72.90489,41.50705,1,CI-859,MT,usdusd
Shannon,NC,28386,-5,-79.12266,34.851864,1,GO-0219,ME,usdmxn
Elmer City,WA,99124,-8,-118.95248,47.998466,1,EFY-237,TX,usdusd
Imlay City,MI,48444,-5,-83.06067,43.038967,1,IFP-8908,MN,usdmxn
Deland,FL,32724,-5,-81.27927,29.039757,1,XVL-404,NY,usdusd
Dunnsville,VA,22454,-5,-76.81298,37.85479,1,JL-571,UT,usdusd
South Bend,IN,46614,-5,-86.24804,41.626587,0,UP-2194,VA,usdusd
Independence,MO,63859,-6,-90.0318,36.26796,1,UD-3884,MN,usdcad
Crestwood,KY,40014,-5,-85.4584,38.335106,1,UQ-2208,LA,usdusd
Uncasville,CT,06382,-5,-72.11459,41.4572,1,KGE-0554,AL,usdusd
Detroit,MI,48277,-5,-83.150826,42.239933,1,VX-9733,NY,usdcad
Kingston,NY,12402,-5,-74.34568,41.8788,1,UJ-8617,SC,usdcad
Quincy,OH,43343,-5,-83.97325,40.308914,1,OP-7230,TN,usdusd
Adams,TN,37010,-6,-87.10026,36.569633,1,AR-487,TN,usdusd
San Juan,PR,00938,-4,-66.06053,18.410461,0,SAT-4364,NY,usdusd
Wilder,ID,83676,-7,-116.90117,43.653877,1,ICA-2252,GA,usdcad
New York,NY,10268,-5,-73.97718,40.78075,1,HL-004,IL,usdusd
Smartville,CA,95977,-8,-121.28975,39.19322,1,YY-213,NH,usdmxn
South Rutland,NY,13688,-5,-75.76777,43.951668,1,WN-022,IL,usdcad
Arcadia,KS,66711,-6,-94.64895,37.644302,1,KH-5933,ND,usdcad
Girvin,TX,79740,-6,-102.47675,31.019602,1,IC-455,SC,usdcad
Lyman,NE,69352,-7,-103.99465,41.84962,1,YJL-8882,CA,usdmxn
Atlanta,GA,30335,-5,-84.38968,33.752407,1,KF-958,OH,usdcad
Moscow,TX,75960,-6,-94.80916,30.903688,1,JCJ-3929,AZ,usdusd
Amherstdale,WV,25607,-5,-81.80248,37.788147,1,QAY-730,ND,usdusd
Estacada,OR,97023,-8,-122.28464,45.267353,1,UR-9108,MT,usdcad
Bowbells,ND,58721,-6,-102.27362,48.811974,1,TU-872,CA,usdmxn
New Vienna,OH,45159,-5,-83.68731,39.32699,1,JF-343,CA,usdusd
Eaton,IN,47338,-5,-85.34956,40.33978,0,MRU-006,WA,usdcad
Brunswick,MO,65236,-6,-93.11175,39.436768,1,CY-0618,VA,usdcad
Richmond Hill,NY,11418,-5,-73.83365,40.698486,1,SD-0503,NY,usdusd
Leroy,MI,49655,-5,-85.44877,44.023712,1,HQZ-020,IN,usdusd
Kettlersville,OH,45336,-5,-84.26309,40.438744,1,FO-314,IA,usdusd
Boyceville,WI,54725,-6,-92.02641,45.06211,1,CW-622,WV,usdcad
Keyes,CA,95328,-8,-120.9141,37.5596,1,IF-8787,SD,usdusd
McKee,KY,40447,-5,-84.03435,37.457016,1,OJR-057,GA,usdusd
South Strafford,VT,05070,-5,-72.36228,43.830376,1,VR-6216,WV,usdusd
Idaho Falls,ID,83404,-7,-112.01425,43.466,1,SH-510,AR,usdusd
Minonk,IL,61760,-6,-89.03266,40.893593,1,YHA-9665,TN,usdusd
Versailles,NY,14168,-5,-78.99947,42.50927,1,QZ-777,IL,usdusd
Melber,KY,42069,-6,-88.75871,36.921463,1,HHO-7178,TX,usdusd
Sun City,CA,92585,-8,-117.17432,33.742935,1,CTY-844,ID,usdcad
Pensacola,FL,32506,-6,-87.31919,30.408808,1,SH-696,WY,usdcad
Caldwell,OH,43724,-5,-81.52512,39.74163,1,IB-185,PA,usdmxn
Rico,CO,81332,-7,-108.02585,37.713158,1,UWU-767,TX,usdusd
Cyclone,WV,24827,-5,-81.67951,37.742954,1,PP-967,IL,usdcad
Fort Loramie,OH,45845,-5,-84.38348,40.338585,1,AU-2576,NJ,usdusd
Mesquite,TX,75185,-6,-96.561844,32.740334,1,JS-244,TX,usdcad
Wrens,GA,30833,-5,-82.37625,33.200325,1,ETA-822,IL,usdcad
Shirley,AR,72153,-6,-92.32589,35.619537,1,GDC-849,CA,usdcad
Hanson,MA,02341,-5,-70.86205,42.059433,1,HXT-849,IN,usdcad
Hallam,NE,68368,-6,-96.78914,40.563072,1,YM-4286,TX,usdcad
McLemoresville,TN,38235,-6,-88.57656,35.99299,1,PMG-071,NY,usdusd
New Eagle,PA,15067,-5,-79.95304,40.207527,1,RCB-3606,WA,usdcad
Ferryville,WI,54628,-6,-91.0025,43.37314,1,ED-333,PA,usdusd
Denton,TX,76204,-6,-97.11628,33.20743,1,IML-468,NJ,usdusd
Montgomery,AL,36191,-6,-86.20853,32.233376,1,QXD-6217,KY,usdusd
Perrysburg,NY,14129,-5,-79.01069,42.469166,1,QE-2281,NY,usdcad
Hartline,WA,99135,-8,-119.08897,47.641983,1,SY-4962,IL,usdcad
Mayfield,OK,73656,-6,-99.680145,35.26946,1,PM-5353,PR,usdusd
Conneaut Lake,PA,16316,-5,-80.29601,41.607956,1,XW-2043,MI,usdmxn
Tehuacana,TX,76686,-6,-96.54327,31.752539,1,ZV-517,GA,usdusd
Bennington,VT,05201,-5,-73.17873,42.882233,1,PYU-160,CO,usdusd
Cedar Rapids,IA,52407,-6,-91.59921,42.079414,1,BNV-9467,MI,usdcad
Santa Margarita,CA,93453,-8,-120.08301,35.323097,1,QJ-8624,PA,usdusd
Itasca,IL,60143,-6,-88.02196,41.97233,1,KWT-701,TX,usdusd
Garden Grove,CA,92680,-8,-117.99356,33.792126,1,AU-5754,KS,usdusd
Kendalia,TX,78027,-6,-98.57124,30.0025,1,AYP-1027,CA,usdusd
Harrisburg,PA,17120,-5,-76.882744,40.26569,1,DQY-794,TX,usdcad
Charlotte,NC,28208,-5,-80.89295,35.23579,1,SEK-813,MI,usdcad
Bradford,TN,38316,-6,-88.81209,36.067295,1,JNN-2763,AK,usdcad
Tucson,AZ,85730,-7,-110.81032,32.179226,0,CI-815,IN,usdcad
Greenville,NY,12083,-5,-74.03728,42.430683,1,RMO-608,WI,usdusd
Rochester,NY,14650,-5,-77.684265,43.286022,1,CZJ-5882,TX,usdcad
Detroit,OR,97342,-8,-122.08703,44.727386,1,BOY-983,OH,usdusd
Holland,MO,63853,-6,-89.87038,36.058613,1,EMR-5926,MO,usdusd
Laurel Bloomery,TN,37680,-5,-81.75509,36.58023,1,PCQ-035,IA,usdmxn
Dimmitt,TX,79027,-6,-102.37108,34.539265,1,GV-974,GA,usdusd
Des Moines,IA,50397,-6,-93.572174,41.672688,1,LL-6179,SC,usdcad
Hyner,PA,17738,-5,-77.64014,41.335148,1,KJ-0831,NY,usdusd
Colorado Springs,CO,80949,-7,-104.56203,38.82469,1,FB-2700,NJ,usdcad
Kansas City,MO,64113,-6,-94.59471,39.013638,1,SZ-960,AL,usdusd
Martha,KY,41159,-5,-82.9507,38.019104,1,IH-800,DE,usdusd
Tickfaw,LA,70466,-6,-90.50196,30.560995,1,RFB-638,VA,usdusd
Port Byron,IL,61275,-6,-90.31978,41.599644,1,FIW-440,WV,usdcad
Grant,LA,70644,-6,-92.94408,30.799892,1,LJQ-876,GA,usdcad
San Francisco,CA,94107,-8,-122.39577,37.76653,1,LCJ-467,IA,usdusd
Chicago,IL,60654,-6,-87.63538,41.888626,1,QJ-465,PA,usdcad
Clarksville,MI,48815,-5,-85.25046,42.84149,1,LVF-3612,VA,usdcad
El Dorado,AR,71730,-6,-92.64911,33.218456,1,IBK-9037,KY,usdusd
Los Angeles,CA,90101,-8,-118.29866,33.786594,1,LQI-9976,WA,usdusd
Eitzen,MN,55931,-6,-91.46635,43.51182,1,IYN-2820,AZ,usdcad
Springfield,MO,65808,-6,-93.34367,37.25807,1,KZN-850,MI,usdusd
Chilmark,MA,02535,-5,-70.75145,41.345577,1,LL-2642,MS,usdcad
Plainview,MN,55964,-6,-92.17048,44.164433,1,UHM-977,PR,usdcad
Negley,OH,44441,-5,-80.54967,40.77615,1,EU-439,FL,usdcad
Buchanan,VA,24066,-5,-79.68004,37.53299,1,MSG-569,VA,usdcad
Greenview,CA,96037,-8,-122.95666,41.53101,1,ZDN-5569,IL,usdusd
Bronson,MI,49028,-5,-85.18987,41.85063,1,GP-7278,NE,usdcad
Meredosia,IL,62665,-6,-90.55791,39.81863,1,AK-5395,LA,usdusd
Chanhassen,MN,55317,-6,-93.54487,44.866238,1,NT-5747,WI,usdcad
Orange Park,FL,32065,-5,-81.77904,30.133007,1,ZAJ-9196,NJ,usdcad
Cadet,MO,63630,-6,-90.74557,38.020744,1,FWX-5561,AL,usdusd
Clinton,WA,98236,-8,-122.40089,47.962135,1,KJ-9869,MN,usdcad
Dixfield,ME,04224,-5,-70.41383,44.555584,1,UP-4750,NC,usdcad
Rising Sun,MD,21911,-5,-76.05395,39.694973,1,NM-682,WA,usdusd
Grandview,IA,52752,-6,-91.18897,41.27724,1,NFU-5668,IL,usdcad
Shawnee Mission,KS,66222,-6,-94.83199,38.899902,1,JEV-1573,WI,usdcad
Golden,CO,80419,-7,-105.223946,39.522015,1,QDJ-5912,MO,usdcad
Rapids City,IL,61278,-6,-90.34323,41.585884,1,VFM-2901,ND,usdusd
Boles,AR,72926,-6,-94.05784,34.734203,1,KQ-2951,WV,usdusd
Troy,SC,29848,-5,-82.19013,33.98022,1,GTI-810,IN,usdcad
Ashland,NY,12407,-5,-74.33926,42.321453,1,SG-0544,IN,usdusd
Orange,CT,06477,-5,-73.02541,41.27955,1,KUV-794,WI,usdcad
Mayaguez,PR,00681,-4,-67.508064,18.219023,0,WOT-280,WV,usdmxn
Annville,PA,17003,-5,-76.53498,40.347755,1,TJ-951,WA,usdcad
Columbia,MS,39429,-6,-89.79264,31.255241,1,BEC-5202,CA,usdusd
Marion Heights,PA,17832,-5,-76.46387,40.80436,1,BPE-382,TX,usdcad
Flagstaff,AZ,86003,-7,-112.05243,35.63084,0,XDN-677,AL,usdusd
Goshen,NJ,08218,-5,-74.81662,39.056522,1,ZPS-2459,IA,usdusd
Winter Harbor,ME,04600,-5,-68.081184,44.39695,1,WG-8507,NJ,usdcad
Enderlin,ND,58027,-6,-97.6003,46.630657,1,JLG-3716,NY,usdcad
Bozeman,MT,59718,-7,-111.137,45.680813,1,QFO-307,FL,usdcad
Fort Bragg,CA,95437,-8,-123.76087,39.43695,1,YGT-331,MI,usdcad
Casscoe,AR,72026,-6,-91.30213,34.505367,1,SHU-742,TX,usdcad
Martindale,TX,78655,-6,-97.84178,29.838163,1,WO-9356,VT,usdusd
Rainier,WA,98576,-8,-122.67573,46.871178,1,GD-089,WA,usdusd
Fort Worth,TX,76191,-6,-97.29148,32.77142,1,BY-8348,AK,usdusd
Windham,NY,12496,-5,-74.24657,42.32692,1,RW-777,WI,usdusd
Hammond,MT,59332,-7,-104.75677,45.386375,1,XHD-475,TX,usdcad
New York,NY,10168,-5,-73.97679,40.751934,1,MIO-9858,PA,usdusd
Ettrick,WI,54627,-6,-91.25737,44.168987,1,LW-1173,VA,usdusd
Redondo Beach,CA,90277,-8,-118.38322,33.828815,1,IQ-162,TX,usdcad
Walnut,KS,66780,-6,-95.06279,37.60342,1,VE-296,IL,usdusd
Saltillo,MS,38866,-6,-88.68079,34.360546,1,RO-061,AR,usdmxn
Toledo,OH,43606,-5,-83.6064,41.67176,1,DWJ-5893,NM,usdusd
Burna,KY,42028,-6,-88.33829,37.24122,1,ROH-4826,IL,usdmxn
San Bernardino,CA,92414,-8,-115.96705,34.839966,1,NP-394,OH,usdusd
Sloan,IA,51055,-6,-96.24606,42.221764,1,DM-2391,VA,usdcad
Montague,CA,96064,-8,-122.40008,41.736423,1,NLA-801,WA,usdusd
South Lake Tahoe,CA,96156,-8,-119.96763,38.935246,1,YHF-5263,AL,usdusd
Los Angeles,CA,90047,-8,-118.30998,33.958466,1,TOC-4613,MN,usdusd
Sanford,NC,27330,-5,-79.16415,35.458805,1,ZNM-775,KS,usdcad
Worcester,MA,01613,-5,-71.80197,42.293316,1,DAO-458,TX,usdusd
Byers,TX,76357,-6,-98.18119,34.06722,1,NM-738,TX,usdcad
Sims,IL,62886,-6,-88.53537,38.374397,1,OQW-1138,TX,usdcad
San Antonio,TX,78268,-6,-98.46158,29.437532,1,ONS-265,MN,usdcad
Washington,DC,20401,-5,-77.01465,38.89331,1,LAI-6127,CA,usdusd
Offerman,GA,31556,-5,-82.11554,31.41265,1,RKN-4075,PA,usdusd
Justice,WV,24851,-5,-81.84968,37.602127,1,KKY-619,NY,usdusd
Cincinnati,OH,45215,-5,-84.45707,39.22886,1,RSL-3641,ID,usdcad
Wellington,OH,44090,-5,-82.24031,41.147118,1,WP-4320,NC,usdcad
Enterprise,AL,36330,-6,-85.84117,31.32579,1,UZN-9551,TX,usdusd
Hadley,MI,48440,-5,-83.40536,42.9529,1,FVR-844,KY,usdusd
Davison,MI,48423,-5,-83.5218,43.029526,1,XZ-804,IA,usdmxn
Klickitat,WA,98628,-8,-121.09804,45.82786,1,UWV-3675,KS,usdcad
Rock River,WY,82083,-7,-105.99071,41.72469,1,AR-8550,MO,usdusd
Oriskany,VA,24130,-5,-79.78615,37.555084,1,JF-252,NY,usdusd
Tampa,FL,33603,-5,-82.4627,27.984198,1,FL-716,CA,usdcad
Sugar Land,TX,77487,-6,-95.75646,29.525461,1,PF-1771,OK,usdusd
Newtonsville,OH,45158,-5,-84.078316,39.18779,1,OOU-0519,OH,usdcad
Bedford Park,IL,60499,-6,-87.68732,41.811928,1,CB-6923,MA,usdusd
Zachow,WI,54182,-6,-88.36984,44.731453,1,UM-968,MI,usdusd
Sedona,AZ,86341,-7,-111.76788,34.77665,0,NGY-2707,KY,usdcad
Omaha,NE,68105,-6,-95.96383,41.240852,1,VJG-3364,MD,usdusd
Adamsville,AL,35005,-6,-86.95969,33.592587,1,TZH-6897,DC,usdusd
Goreville,IL,62939,-6,-88.96661,37.558235,1,LZ-9102,NE,usdusd
Mcadoo,TX,79243,-6,-100.98464,33.787308,1,JC-1125,MA,usdcad
Saratoga,NC,27873,-5,-77.77649,35.65363,1,NGX-781,KY,usdusd
Loyall,KY,40854,-5,-83.35315,36.85107,1,FQ-130,LA,usdcad
Mckenna,WA,98558,-8,-122.55585,46.955864,1,AY-6131,TN,usdusd
Colorado Springs,CO,80901,-7,-104.85783,38.86147,1,ZU-875,CO,usdusd
Broadway,NC,27505,-5,-79.03409,35.42638,1,IFI-5432,SC,usdusd
Brick,NJ,08724,-5,-74.10981,40.087795,1,DWC-648,IL,usdcad
Mobile,AL,36622,-6,-88.17798,30.658865,1,NSV-700,PA,usdusd
Bath,IN,47010,-5,-84.82728,39.518215,0,OK-641,MI,usdcad
Holcomb,MS,38940,-6,-89.99349,33.742886,1,TOL-5630,WV,usdcad
Dallas,PA,18690,-5,-75.88014,41.272247,1,CZS-3670,CT,usdusd
La Place,LA,70069,-6,-90.48319,30.091158,1,FF-488,VA,usdcad
New Orleans,LA,70152,-6,-89.88256,30.032997,1,BO-624,TX,usdusd
Damon,TX,77430,-6,-95.70739,29.290602,1,MS-573,CT,usdusd
Arcadia,OK,73007,-6,-97.32739,35.685368,1,GZ-462,MO,usdmxn
Medina,NY,14103,-5,-78.38746,43.217155,1,SSV-9120,WI,usdusd
Sanbornton,NH,03269,-5,-71.5876,43.523174,1,XR-488,CA,usdusd
Mountain View,CA,94035,-8,-121.70533,37.189396,1,PVO-549,TN,usdcad
Chicopee,MA,01021,-5,-72.60484,42.17073,1,NDY-9017,SD,usdcad
Wells,MI,49894,-5,-87.07647,45.778065,1,FN-4829,NC,usdmxn
Brooksville,FL,34603,-5,-82.41651,28.564167,1,BVD-968,SD,usdusd
Kansas City,MO,64152,-6,-94.69991,39.216637,1,NI-468,MO,usdcad
Suffolk,VA,23436,-5,-76.51281,36.894737,1,QC-9075,AK,usdusd
McDonald,OH,44437,-5,-80.73083,41.159573,1,QY-7479,CA,usdcad
Phoenix,AZ,85035,-7,-112.1875,33.472492,0,OJ-084,NJ,usdcad
Jamaica,NY,11484,-5,-73.87078,40.65138,1,GS-492,NE,usdusd
Belle Glade,FL,33430,-5,-80.66279,26.685125,1,UZ-933,NC,usdmxn
Watertown,WI,53098,-6,-88.70634,43.231506,1,DMM-431,TX,usdusd
Aberdeen,ID,83210,-7,-112.83218,42.97228,1,KV-454,NY,usdcad
Leo,IN,46765,-5,-85.02486,41.2197,0,LH-3685,VT,usdcad
Price,MD,21656,-5,-76.092125,39.034637,1,HN-761,MA,usdcad
Portland,TN,37148,-6,-86.51355,36.576138,1,TEY-474,IL,usdcad
Portland,OR,97256,-8,-122.37478,45.58056,1,YKB-395,LA,usdmxn
Miami,FL,33257,-5,-80.45817,25.558428,1,CTR-605,NH,usdusd
Melrose Park,IL,60161,-6,-87.68732,41.811928,1,QA-1614,OH,usdcad
Whittier,CA,90609,-8,-118.29866,33.786594,1,VO-529,MO,usdusd
Winter Haven,FL,33881,-5,-81.72457,28.051985,1,NI-4116,NY,usdusd
San Mateo,CA,94407,-8,-122.33482,37.381145,1,HM-628,AL,usdmxn
Davisville,MO,65456,-6,-91.19197,37.780712,1,PTE-7915,VA,usdusd
McGrath,MN,56350,-6,-93.26096,46.274326,1,ZL-127,WI,usdcad
Northville,NY,12134,-5,-74.14822,43.21892,1,BD-573,IN,usdusd
San Francisco,CA,94136,-8,-122.7278,37.78483,1,FFI-571,MT,usdusd
Deer Park,AL,36529,-6,-88.26036,31.309195,1,KRK-7894,VT,usdusd
Inglewood,CA,90306,-8,-118.29866,33.786594,1,QA-028,WI,usdusd
Stanley,ND,58784,-6,-102.4235,48.36698,1,FD-3599,TN,usdcad
Everett,WA,98208,-8,-122.19797,47.89345,1,BJC-5356,AL,usdusd
Nikolai,AK,99691,-9,-154.41957,62.999214,1,WA-836,TX,usdusd
Collinwood,TN,38450,-6,-87.77263,35.18787,1,VA-2006,AL,usdusd
Cooperstown,PA,16317,-5,-79.86027,41.52668,1,AH-083,PA,usdcad
Wichita Falls,TX,76302,-6,-98.4801,33.85379,1,FC-571,VA,usdusd
Edmonds,WA,98020,-8,-122.37096,47.80367,1,POZ-2973,AR,usdcad
Killingworth,CT,06419,-5,-72.57637,41.380592,1,NC-132,NE,usdcad
Alexandria,VA,22301,-5,-77.05854,38.819862,1,QS-679,SC,usdusd
Lexington,KY,40593,-5,-84.471504,38.02827,1,EP-248,IA,usdusd
Mid Florida,FL,32799,-5,-81.22328,28.744753,1,XO-9652,KY,usdcad
Lake Harbor,FL,33459,-5,-80.43027,26.645895,1,NPE-0891,OH,usdusd
Wauseon,OH,43567,-5,-84.15574,41.5615,1,GG-230,MN,usdusd
South Grafton,MA,01560,-5,-71.69382,42.177464,1,DQ-221,VA,usdusd
Lambrook,AR,72353,-6,-91.00403,34.297752,1,HG-343,GA,usdcad
Regina,KY,41559,-5,-82.40573,37.364548,1,GA-582,TX,usdcad
Opelika,AL,36803,-6,-85.43152,32.522568,1,TIP-8562,GA,usdcad
Magness,AR,72553,-6,-91.48003,35.69817,1,BB-2907,NC,usdusd
Odessa,TX,79760,-6,-102.35435,31.765163,1,RZ-733,MI,usdcad
Otter Rock,OR,97369,-8,-124.06328,44.75882,1,ODY-292,TX,usdusd
Trumbauersville,PA,18970,-5,-75.38625,40.41277,1,RFY-1189,GA,usdusd
Lawrenceville,GA,30043,-5,-84.01487,34.00116,1,VN-6665,OK,usdcad
El Paso,TX,79951,-7,-106.29999,31.694841,1,RV-289,NC,usdmxn
White Lake,MI,48386,-5,-83.47193,42.64243,1,QZ-0694,IN,usdmxn
East Randolph,VT,05041,-5,-72.54784,43.96682,1,JLH-191,PA,usdusd
Bartow,GA,30413,-5,-82.50969,32.884136,1,YDR-290,AR,usdusd
California,MO,65018,-6,-92.56443,38.624863,1,XOU-901,MI,usdusd
Blencoe,IA,51523,-6,-96.085,41.9134,1,XN-4767,NY,usdusd
Delbarton,WV,25670,-5,-82.14416,37.705948,1,RMP-3555,SD,usdusd
Jasper,IN,47549,-5,-86.876175,38.36475,0,ZBG-886,VA,usdusd
Wilmington,DE,19898,-5,-75.597046,39.5645,1,XH-5485,NY,usdusd
Clayton,KS,67629,-6,-100.17544,39.707176,1,JN-147,KY,usdusd
Mallory,WV,25634,-5,-81.84577,37.72738,1,MIR-073,AL,usdusd
West Palm Beach,FL,33422,-5,-80.43027,26.645895,1,ITH-227,FL,usdusd
Carrington,ND,58421,-6,-99.08527,47.45005,1,EA-447,AL,usdcad
Montgomery,AL,36101,-6,-86.25782,32.356987,1,ME-267,FL,usdusd
Spragueville,IA,52074,-6,-90.4557,42.12414,1,CA-1028,CA,usdmxn
Amberg,WI,54102,-6,-88.08108,45.503624,1,JV-2374,WV,usdcad
Mobile,AL,36690,-6,-88.17798,30.658865,1,WD-7522,IA,usdcad
Bloomsdale,MO,63627,-6,-90.25527,38.051823,1,WM-0033,SD,usdmxn
Madison,WI,53709,-6,-89.42386,43.06956,1,UGJ-570,LA,usdusd
Arthur,IL,61911,-6,-88.45985,39.70439,1,RA-3081,WA,usdmxn
Wallback,WV,25285,-5,-81.12923,38.566364,1,DX-404,LA,usdusd
Glengary,WV,25421,-5,-78.1676,39.37277,1,ZPO-772,VT,usdusd
Orient,SD,57467,-6,-99.11828,44.84796,1,UX-939,VT,usdcad
Preston,IA,52069,-6,-90.40762,42.05162,1,ZE-5611,IN,usdusd
Pillager,MN,56473,-6,-94.4846,46.368607,1,YLH-9204,WA,usdusd
Haledon,NJ,07508,-5,-74.18286,40.945198,1,JUN-0206,NJ,usdusd
Middlebury,IN,46540,-5,-85.69409,41.685375,0,XA-011,VT,usdusd
Florence,AL,35632,-6,-87.706856,34.869965,1,NMK-2786,MN,usdusd
Marianna,PA,15345,-5,-80.10273,40.019657,1,AD-656,NV,usdusd
Waterproof,LA,71375,-6,-91.4343,31.796576,1,UMM-9254,WV,usdusd
Greenbank,WA,98253,-8,-122.57129,48.085854,1,JQK-7994,WV,usdusd
Schuyler,VA,22969,-5,-78.69417,37.792343,1,TTK-316,MS,usdusd
Reidsville,GA,30499,-5,-81.998344,32.050694,1,HO-690,MO,usdusd
Fountain,MI,49410,-5,-86.14028,44.01625,1,GT-2731,MI,usdcad
Hartford,CT,06145,-5,-72.718834,41.791775,1,FET-3287,CO,usdmxn
Wayside,WV,24985,-5,-80.74638,37.597233,1,WL-841,CO,usdcad
Rozet,WY,82727,-7,-105.23842,44.221573,1,LCD-356,CA,usdusd
New Durham,NH,03855,-5,-71.14628,43.443684,1,ARJ-993,WV,usdusd
Ladson,SC,29456,-5,-80.12165,32.993572,1,LM-305,NC,usdusd
Saint Louis,MO,63128,-6,-90.37113,38.500732,1,XE-1380,TX,usdmxn
Huntington Park,CA,90255,-8,-118.21773,33.978405,1,QV-2824,NJ,usdusd
Shawnee Mission,KS,66201,-6,-94.67949,39.007755,1,OEI-1858,WV,usdcad
Ozone,AR,72854,-6,-93.42258,35.686768,1,XQ-3759,TX,usdcad
Sandy Point,VA,22577,-5,-76.55028,38.067326,1,AEW-084,WV,usdusd
Sabetha,KS,66534,-6,-95.82289,39.889545,1,ST-4076,NH,usdcad
Chama,CO,81126,-7,-105.34164,37.17534,1,PAX-567,MT,usdcad
North Little Rock,AR,72117,-6,-92.17913,34.777237,1,AV-804,AR,usdcad
Galveston,IN,46932,-5,-86.23191,40.593037,0,AD-591,ME,usdusd
Bowler,WI,54416,-6,-88.95511,44.87939,1,QD-6934,OH,usdusd
Half Way,MO,65663,-6,-93.23617,37.58605,1,RG-4823,PA,usdusd
Tumwater,WA,98500,-8,-122.907646,46.98552,1,KPZ-069,TX,usdcad
Sherwood,OR,97140,-8,-122.85376,45.352085,1,RP-216,TX,usdcad
Alger,OH,45812,-5,-83.8231,40.69686,1,HCC-897,IL,usdusd
Whitewright,TX,75491,-6,-96.39598,33.494286,1,KXL-991,WA,usdusd
Inglewood,CA,90313,-8,-118.29866,33.786594,1,ULI-296,SD,usdcad
Mountain Pass,CA,92366,-8,-115.96705,34.839966,1,HW-2317,OK,usdusd
Lovilia,IA,50150,-6,-92.93572,41.120846,1,MM-7455,CO,usdusd
Hayward,CA,94543,-8,-121.9215,37.68018,1,VGG-616,TX,usdmxn
Silverton,ID,83867,-8,-115.9555,47.495304,1,ZR-0842,MI,usdcad
Sammamish,WA,98074,-8,-122.04535,47.625362,1,YK-670,NC,usdcad
Woonsocket,SD,57385,-6,-98.28766,44.05448,1,BN-472,IN,usdcad
Dorsey,IL,62021,-6,-89.97461,38.97601,1,FMY-444,MO,usdcad
El Paso,AR,72045,-6,-92.07641,35.141743,1,BL-081,NJ,usdcad
Oxnard,CA,93034,-8,-119.1343,34.032383,1,WE-964,UT,usdcad
Oyster Bay,NY,11771,-5,-73.52292,40.86888,1,HW-3226,DC,usdcad
Elk Grove,CA,95759,-8,-121.44443,38.37741,1,AE-927,GA,usdusd
Harwich,MA,02645,-5,-70.05679,41.707333,1,HAD-821,MO,usdusd
Richmond,VA,23279,-5,-77.49316,37.524246,1,NBD-7320,ND,usdusd
Mcdonough,GA,30253,-5,-84.17215,33.455032,1,JN-364,CO,usdcad
Cincinnati,OH,45264,-5,-84.53822,39.16676,1,MB-900,AL,usdusd
South Bend,IN,46601,-5,-86.25253,41.671196,0,NT-7352,MI,usdcad
Belpre,OH,45714,-5,-81.5958,39.297623,1,GB-619,NE,usdusd
Goshen,NH,03752,-5,-72.13525,43.304058,1,VCH-1490,NY,usdcad
Englewood,FL,34223,-5,-82.3665,26.974857,1,NKV-647,WV,usdcad
Weir,MS,39772,-6,-89.32063,33.321346,1,UX-967,HI,usdusd
Ardenvoir,WA,98811,-8,-120.37126,47.737026,1,YAD-742,AR,usdcad
Center Point,LA,71323,-6,-92.21624,31.247946,1,FU-476,IA,usdcad
Shenorock,NY,10587,-5,-73.74227,41.328735,1,WS-1795,PA,usdcad
Mayhill,NM,88339,-7,-105.40542,32.92398,1,LYD-543,TN,usdusd
Lancaster,PA,17606,-5,-76.30538,40.110203,1,IC-479,TN,usdcad
Gridley,KS,66852,-6,-95.89505,38.078495,1,CII-189,ND,usdmxn
Minneapolis,MN,55479,-6,-93.47188,45.015915,1,XE-269,CA,usdusd
Hampton,IL,61256,-6,-90.40987,41.554665,1,DTR-5599,ME,usdusd
Charlottesville,VA,22905,-5,-78.48507,38.0401,1,LL-6503,CA,usdusd
Ambrose,GA,31512,-5,-83.01502,31.57344,1,AX-228,DE,usdcad
Old Orchard Beach,ME,04064,-5,-70.3856,43.514866,1,TP-459,IN,usdmxn
Stillwater,MN,55083,-6,-92.98373,45.021015,1,NQ-251,VA,usdusd
Marmaduke,AR,72443,-6,-90.39082,36.179813,1,JJ-433,PA,usdusd
Okauchee,WI,53069,-6,-88.43771,43.114117,1,WIS-2637,OK,usdusd
Centreville,MD,21617,-5,-76.05309,39.049698,1,KZI-8060,NM,usdusd
Atlanta,GA,30399,-5,-84.47405,33.84437,1,NWX-624,KY,usdusd
Lake Como,PA,18437,-5,-75.33611,41.866272,1,DAQ-7617,MS,usdcad
Battle Creek,MI,49016,-5,-85.29136,42.34381,1,CS-9986,PA,usdcad
Jeffrey City,WY,82310,-7,-107.7646,42.444748,1,ACW-725,AL,usdusd
Boston,MA,02266,-5,-70.91963,42.338947,1,JU-7814,TX,usdcad
Charlotte,NC,28240,-5,-80.80415,35.26002,1,UGO-9155,VA,usdusd
Fort Worth,TX,76120,-6,-97.17527,32.76263,1,VZC-598,AR,usdcad
Pitkin,LA,70656,-6,-92.94802,30.93709,1,HV-877,IL,usdusd
Glasford,IL,61533,-6,-89.8297,40.577778,1,ST-5243,VA,usdusd
Du Pont,GA,31630,-5,-82.86455,30.96373,1,BP-998,TX,usdusd
Pismo Beach,CA,93449,-8,-120.65401,35.150887,1,JSK-2029,MD,usdusd
Sheldon,SC,29941,-5,-80.82739,32.586006,1,KCR-3587,MI,usdusd
Salton City,CA,92275,-8,-115.9565,33.28935,1,AQX-172,IN,usdcad
Wilsonburg,WV,26461,-5,-80.385345,39.285206,1,RGS-959,LA,usdcad
Fort Wayne,IN,46852,-5,-85.07071,41.09376,0,HHJ-478,MI,usdmxn
New Sharon,IA,50207,-6,-92.64823,41.44502,1,STC-031,OH,usdusd
Bethesda,MD,20827,-5,-77.20762,39.14398,1,ERE-1814,CO,usdusd
Nesconset,NY,11767,-5,-73.14303,40.84296,1,YX-782,LA,usdcad
Neola,WV,24961,-5,-80.42687,37.975594,1,TH-268,TX,usdusd
Dongola,IL,62926,-6,-89.15783,37.36398,1,OST-249,NY,usdusd
Wales,UT,84667,-7,-111.67126,39.458683,1,TVP-629,AK,usdcad
Evergreen,CO,80437,-7,-105.223946,39.522015,1,FHA-1375,MS,usdcad
Denver,CO,80224,-7,-104.91348,39.68844,1,CJS-5785,KY,usdusd
Fries,VA,24338,-5,-80.97827,36.718307,1,REK-8941,IA,usdusd
Spencer,MA,01562,-5,-71.99227,42.24721,1,EW-0867,RI,usdmxn
Farmington,ND,58293,-6,-97.50491,48.52845,1,QX-9427,VA,usdcad
Franklin,TX,77856,-6,-96.44131,31.049091,1,SI-0596,PA,usdcad
Madras,OR,97741,-8,-121.12506,44.64079,1,CWH-5683,CT,usdcad
South Haven,MI,49090,-5,-86.24912,42.40359,1,FL-217,CA,usdcad
Alexander,AR,72002,-6,-92.50223,34.644386,1,RQQ-4261,LA,usdcad
Los Alamos,NM,87545,-7,-106.29526,35.863857,1,LM-858,FL,usdusd
Bridgewater,VA,22812,-5,-79.00071,38.39805,1,QF-4683,MN,usdmxn
Barrett,MN,56311,-6,-95.88297,45.903,1,MQB-2727,KY,usdusd
Portsmouth,VA,23704,-5,-76.31369,36.83075,1,XZL-9848,CA,usdusd
Sigel,IL,62462,-6,-88.47715,39.223923,1,OWC-9253,WI,usdcad
Arctic Village,AK,99722,-9,-145.52768,68.121826,1,HVD-6597,RI,usdcad
Dublin,OH,43016,-5,-83.13983,40.08981,1,HWC-8645,CO,usdusd
Baker,LA,70714,-6,-91.14763,30.584787,1,GS-527,FL,usdusd
Millville,WV,25432,-5,-77.87722,39.315914,1,DJ-1358,OH,usdusd
Woodbury,TN,37190,-6,-86.05538,35.813335,1,EGP-483,CA,usdusd
Senatobia,MS,38668,-6,-89.94635,34.6076,1,OAV-8938,MO,usdcad
Madison,NY,13402,-5,-75.4988,42.90777,1,PD-769,OH,usdusd
Check,VA,24072,-5,-80.2167,37.040035,1,DJ-707,KY,usdusd
Curlew,IA,50527,-6,-94.78269,42.97387,1,GNF-020,OK,usdcad
Kiowa,OK,74553,-6,-95.90485,34.7081,1,QHD-8112,FL,usdusd
Austin,TX,78722,-6,-97.71659,30.289307,1,GQ-071,MO,usdusd
Andale,KS,67001,-6,-97.62602,37.779022,1,FF-246,ME,usdusd
Washtucna,WA,99371,-8,-118.2869,46.782784,1,VHK-895,OK,usdusd
Chicago,IL,60622,-6,-87.66927,41.900333,1,AHF-492,MI,usdcad
Oscar,LA,70762,-6,-91.46181,30.60998,1,EU-873,IA,usdusd
Adamsburg,PA,15611,-5,-79.65604,40.3044,1,HJV-830,NM,usdusd
Fremont,WI,54940,-6,-88.84998,44.237843,1,RQ-242,PA,usdcad
Saint Vincent,MN,56755,-6,-97.13949,48.95445,1,PGZ-9466,PR,usdusd
Kansas City,MO,64165,-6,-94.57545,39.317974,1,NF-506,CO,usdmxn
Oak Harbor,OH,43449,-5,-83.13569,41.53446,1,YIO-123,FL,usdusd
Ocean Beach,NY,11770,-5,-73.16115,40.64395,1,DV-2543,OK,usdcad
Jonestown,PA,17038,-5,-76.51296,40.434998,1,WE-0122,MA,usdcad
Racine,WI,53406,-6,-87.85827,42.73081,1,WRD-0735,NE,usdcad
Buttzville,NJ,07829,-5,-74.985916,40.84335,1,SO-185,NH,usdusd
Richmond,VA,23249,-5,-77.49316,37.524246,1,AJ-7947,TX,usdusd
Calera,AL,35040,-6,-86.74996,33.10757,1,XT-079,AL,usdcad
Lattimer Mines,PA,18234,-5,-75.96009,40.99303,1,HO-9114,OH,usdusd
Freeport,OH,43973,-5,-81.27506,40.18981,1,AC-042,LA,usdusd
Arco,ID,83213,-7,-113.31639,43.65183,1,GKM-4924,OH,usdcad
Murray,ID,83874,-8,-115.83204,47.626186,1,UOY-956,MN,usdusd
Yolo,CA,95697,-8,-121.83215,38.751038,1,RFP-6560,PA,usdcad
Dickinson,ND,58602,-7,-102.66391,46.820187,1,YK-4328,FL,usdcad
Bimble,KY,40915,-5,-83.81552,36.88708,1,SNV-083,VA,usdusd
Lutherville Timonium,MD,21094,-5,-76.59214,39.438965,1,KPF-1936,AZ,usdmxn
Treynor,IA,51575,-6,-95.61155,41.231148,1,OFQ-7470,KS,usdcad
Fajardo,PR,00748,-4,-65.65248,18.326733,0,HO-4764,KY,usdcad
Kernville,CA,93238,-8,-118.43769,35.784367,1,PN-979,IL,usdusd
Milwaukee,WI,53270,-6,-87.90363,43.03876,1,XI-936,VA,usdusd
Villas,NJ,08251,-5,-74.93616,39.022255,1,IV-1024,TX,usdcad
Wichita,KS,67232,-6,-97.17137,37.639492,1,YM-714,OK,usdusd
Greensburg,PA,15601,-5,-79.54126,40.298763,1,ATK-8466,CA,usdcad
Manchester,NH,03101,-5,-71.46376,42.989983,1,OP-918,CA,usdcad
Rosedale,WV,26636,-5,-80.9435,38.74076,1,GRN-942,PA,usdmxn
Seattle,WA,98166,-8,-122.34943,47.45882,1,KRZ-105,OH,usdusd
Cerritos,CA,90703,-8,-118.06754,33.868313,1,FUS-2701,TX,usdcad
Lockport,IL,60441,-6,-88.02753,41.598236,1,KF-3865,GA,usdusd
Cleveland,TX,77327,-6,-95.04514,30.35469,1,QEG-041,MO,usdcad
Fort Collins,CO,80523,-7,-105.46483,40.45553,1,NF-114,AL,usdusd
Garden Grove,CA,92842,-8,-117.76944,33.6403,1,XHP-7088,OR,usdusd
Folsom,WV,26348,-5,-80.5275,39.472363,1,YNQ-661,FL,usdcad
Graham,FL,32042,-5,-82.12255,29.968925,1,XS-778,CO,usdusd
Okeechobee,FL,34972,-5,-80.87555,27.39171,1,NTR-7300,MI,usdusd
Bryant,FL,33439,-5,-80.43027,26.645895,1,KN-456,KY,usdusd
Grand Blanc,MI,48439,-5,-83.63585,42.92568,1,HRT-306,NC,usdcad
Alpine,NJ,07620,-5,-73.93064,40.952812,1,FK-0432,WI,usdusd
Salinas,CA,93908,-8,-121.65145,36.619953,1,ZU-019,AR,usdusd
Brooklyn,NY,11231,-5,-74.00254,40.6788,1,QA-9239,MI,usdcad
Boiling Springs,NC,28017,-5,-81.65456,35.254223,1,KVZ-933,OH,usdusd
Washington,DC,20553,-5,-77.02312,38.887333,1,UM-451,OK,usdusd
Sardis,GA,30456,-5,-81.79396,32.96903,1,SM-311,OH,usdmxn
Dawson,ND,58428,-6,-99.74913,46.868176,1,IQG-798,OK,usdcad
Eleele,HI,96705,-10,-159.58221,21.910767,0,PLF-909,MN,usdcad
Fall Rock,KY,40932,-5,-83.737015,37.147686,1,EF-0163,MI,usdcad
Stamping Ground,KY,40379,-5,-84.69614,38.29617,1,SN-9604,VT,usdusd
Cavalier,ND,58220,-6,-97.69887,48.797043,1,QF-814,MI,usdusd
Alloway,NJ,08001,-5,-75.3631,39.559425,1,CK-3987,PA,usdusd
Worcester,MA,01606,-5,-71.79531,42.31134,1,AP-160,WV,usdcad
Bayard,IA,50029,-6,-94.55588,41.84587,1,MF-747,IL,usdusd
Windsor,NC,27983,-5,-76.9349,36.015392,1,NFF-5225,ND,usdcad
Kansas City,MO,64156,-6,-94.51296,39.281487,1,SD-443,IA,usdcad
Ferney,SD,57439,-6,-98.08372,45.32904,1,THB-2687,WI,usdmxn
Stanfield,OR,97875,-8,-119.21099,45.786324,1,IU-5301,TX,usdusd
Alsace,PA,19650,-5,-75.86638,40.394882,1,PI-588,TX,usdcad
Adamsville,TN,38310,-6,-88.38425,35.241413,1,KE-306,AR,usdcad
Philadelphia,PA,19194,-5,-75.11787,40.001812,1,FW-884,FL,usdcad
Terra Bella,CA,93270,-8,-119.03742,35.94901,1,DNY-226,WV,usdusd
Cortland,IL,60112,-6,-88.6899,41.92112,1,IX-864,CO,usdmxn
Woodward,OK,73801,-6,-99.40838,36.433666,1,JY-385,IA,usdmxn
Daisetta,TX,77533,-6,-94.64704,30.112587,1,SK-8964,IN,usdusd
Patton,CA,92369,-8,-115.96705,34.839966,1,YI-8559,AZ,usdusd
Ortonville,MI,48462,-5,-83.43109,42.84391,1,GPA-7074,TX,usdusd
Jonesboro,AR,72403,-6,-90.70392,35.83054,1,NC-605,CO,usdusd
Aguirre,PR,00704,-4,-66.22291,17.970112,0,XNM-482,FL,usdusd
Miami,TX,79059,-6,-100.6961,35.724846,1,TBG-6570,TX,usdcad
Des Moines,IA,50312,-6,-93.67356,41.58704,1,MFJ-0387,DC,usdusd
Rhinecliff,NY,12574,-5,-73.95173,41.91507,1,YZU-1629,NY,usdcad
Rockledge,GA,30454,-5,-82.72979,32.432854,1,II-7880,MI,usdcad
Morrow,AR,72749,-6,-94.43534,35.8644,1,NU-322,KY,usdmxn
Buffalo,NY,14267,-5,-78.88709,42.768414,1,XSA-660,IA,usdmxn
Kinsale,VA,22488,-5,-76.57924,38.046356,1,SGU-6719,NH,usdusd
Denver,CO,80236,-7,-105.04089,39.652454,1,NP-903,WY,usdusd
Willard,WI,54493,-6,-90.79351,44.729523,1,WEC-5888,NJ,usdusd
Fort Wayne,IN,46802,-5,-85.15101,41.071682,0,GEH-8977,NC,usdcad
Parker,CO,80138,-7,-104.70607,39.52317,1,QE-9895,VT,usdcad
West Newbury,MA,01985,-5,-70.97286,42.790737,1,YN-976,SC,usdusd
Rossville,IL,60963,-6,-87.6603,40.372448,1,KEI-011,MD,usdmxn
Port Gamble,WA,98364,-8,-122.59122,47.854504,1,TMG-1538,LA,usdmxn
Tranquillity,CA,93668,-8,-120.28909,36.641743,1,MUR-7524,KS,usdcad
Hampton,VA,23669,-5,-76.34415,37.037945,1,LH-729,VA,usdusd
Manteo,NC,27954,-5,-75.67961,35.913937,1,KEC-529,AZ,usdmxn
Hopkins,MI,49328,-5,-85.75809,42.634197,1,MMR-445,CA,usdusd
Denton,GA,31532,-5,-82.73595,31.718382,1,CA-5830,NC,usdmxn
Shorterville,AL,36373,-6,-85.1146,31.52151,1,VZI-627,WA,usdusd
Lincolnville,KS,66858,-6,-96.95611,38.47355,1,KAG-482,NE,usdusd
Quebeck,TN,38579,-6,-85.55772,35.817417,1,ZG-8209,SD,usdusd
Suffolk,VA,23434,-5,-76.59656,36.735893,1,AIO-2074,MI,usdcad
Salem,OR,97314,-8,-123.00661,44.96554,1,WYB-9606,MO,usdcad
Cleveland,WV,26215,-5,-80.39927,38.716236,1,BPT-6157,SD,usdusd
East Fairfield,PA,16355,-5,-80.06213,41.56268,1,AB-523,WV,usdcad
Centuria,WI,54824,-6,-92.52701,45.45487,1,JL-491,ID,usdcad
Aquilla,TX,76622,-6,-97.23306,31.824495,1,YNK-5186,PA,usdcad
Houston,TX,77265,-6,-95.43424,29.83399,1,FJV-8072,WI,usdcad
Grants,NM,87020,-7,-107.90777,35.122128,1,MH-694,OR,usdcad
Manderson,WY,82432,-7,-107.9263,44.24825,1,BUU-4406,TX,usdusd
Young Harris,GA,30582,-5,-83.86484,34.95464,1,VH-040,KY,usdusd
Weston,MA,02493,-5,-71.28831,42.35866,1,QZG-2530,TX,usdusd
Ripon,CA,95366,-8,-121.12546,37.742893,1,ZAU-117,MI,usdusd
Elmendorf,TX,78112,-6,-98.36902,29.221682,1,MV-460,IL,usdusd
Lueders,TX,79533,-6,-99.60862,32.80699,1,MH-4851,KY,usdusd
Sun City,KS,67143,-6,-98.96044,37.363445,1,NGB-3734,MI,usdcad
Tokeland,WA,98590,-8,-123.98121,46.737457,1,HGQ-2263,GA,usdmxn
Wolsey,SD,57384,-6,-98.47279,44.41484,1,KIS-095,VA,usdcad
Holley,NY,14470,-5,-78.04393,43.221687,1,VC-995,TX,usdusd
Gloucester City,NJ,08030,-5,-75.11836,39.891113,1,CK-9920,MN,usdcad
Hope Hull,AL,36043,-6,-86.39798,32.22381,1,BPN-7909,KY,usdusd
Celina,OH,45822,-5,-84.58232,40.542778,1,XGT-7302,NE,usdcad
Webster,FL,33597,-5,-82.15053,28.568394,1,JRL-436,ND,usdcad
Hastings,NE,68901,-6,-98.38131,40.5893,1,XFH-5017,CA,usdusd
Gates Mills,OH,44040,-5,-81.41052,41.532585,1,IH-2278,IL,usdusd
Dos Palos,CA,93620,-8,-120.64014,37.029613,1,FUT-6104,TX,usdcad
Titusville,FL,32780,-5,-80.81695,28.564077,1,BT-731,CA,usdmxn
Pioneer,OH,43554,-5,-84.56225,41.65973,1,ANM-876,AR,usdcad
Pensacola,FL,32524,-6,-87.27577,30.61428,1,UQ-7468,ID,usdcad
Moline,KS,67353,-6,-96.29965,37.33756,1,ZJ-5149,CA,usdusd
Saint Helena,CA,94574,-8,-122.45695,38.511242,1,FB-480,MI,usdmxn
Baton Rouge,LA,70823,-6,-91.080376,30.51589,1,XP-117,NY,usdcad
Green River,UT,84525,-7,-110.35905,38.983074,1,RHX-077,MA,usdusd
Girardville,PA,17935,-5,-76.28315,40.79326,1,DWH-426,ID,usdusd
Bogota,TN,38007,-6,-89.43768,36.15867,1,RX-4490,OH,usdusd
Lebanon,SD,57455,-6,-99.76851,45.04188,1,OQT-9399,SD,usdcad
Portola,CA,96122,-8,-120.48359,39.80105,1,AZ-697,PA,usdmxn
Ballengee,WV,24919,-5,-80.71636,37.62042,1,LR-6478,WI,usdusd
Castroville,CA,95012,-8,-121.75105,36.768856,1,MF-159,PA,usdcad
Wilsonville,NE,69046,-6,-100.11077,40.10636,1,WEG-8487,VA,usdcad
Woodford,WI,53599,-6,-89.862206,42.649307,1,SJX-8196,MI,usdusd
Summerdale,PA,17093,-5,-76.9287,40.31009,1,IN-5970,OH,usdusd
Santa Cruz,NM,87567,-7,-106.03282,35.994907,1,OIX-189,GA,usdcad
Lake Village,IN,46349,-6,-87.43686,41.111996,1,UP-373,WA,usdusd
Topeka,KS,66667,-6,-95.76965,39.04294,1,VC-165,NJ,usdusd
Branchville,SC,29432,-5,-80.80248,33.22958,1,HUA-694,NJ,usdmxn
Pomeroy,IA,50575,-6,-94.68307,42.55602,1,PP-1612,TN,usdusd
Stotts City,MO,65756,-6,-93.95502,37.103672,1,AHB-5116,WV,usdusd
Dutton,VA,23050,-5,-76.44118,37.490364,1,ZSH-5490,MS,usdusd
South Bend,IN,46620,-5,-86.29299,41.596767,0,LUL-301,WV,usdmxn
Koshkonong,MO,65692,-6,-91.64615,36.602467,1,COL-786,IN,usdusd
Pacolet,SC,29372,-5,-81.74846,34.90068,1,NSZ-564,MN,usdusd
Mount Vernon,WA,98274,-8,-122.24432,48.371025,1,VEO-583,CA,usdcad
Miami,FL,33179,-5,-80.17941,25.95872,1,NX-448,VA,usdusd
Hebron,OH,43098,-5,-82.48266,40.095146,1,UKA-306,KY,usdusd
Crestline,CA,92325,-8,-117.28654,34.242565,1,GN-722,MO,usdcad
Burlington,KY,41005,-5,-84.74158,39.020466,1,YJ-700,VA,usdusd
Phoenix,AZ,85007,-7,-112.09024,33.449993,0,MF-3549,CT,usdusd
Green Creek,NJ,08219,-5,-74.81662,39.056522,1,DW-7650,VT,usdusd
Collinwood,TN,38350,-6,-87.74512,35.148315,1,BW-968,WV,usdcad
Baroda,MI,49101,-5,-86.48827,41.94487,1,FVP-1908,MA,usdcad
Las Vegas,NV,89151,-8,-114.97206,35.927902,1,LY-0128,SD,usdusd
Lamar,CO,81052,-7,-102.61855,38.08759,1,KZ-563,MI,usdusd
Kossuth,PA,16331,-5,-79.57486,41.306316,1,CM-013,AZ,usdusd
Washington,DC,20552,-5,-77.01465,38.89331,1,DA-838,MS,usdcad
Linville,VA,22834,-5,-78.86564,38.54465,1,IB-3534,ME,usdusd
Washington,DC,20580,-5,-77.01465,38.89331,1,DHH-9700,MD,usdusd
Ronks,PA,17572,-5,-76.15367,40.003407,1,WFC-353,KS,usdcad
Centerville,GA,31028,-5,-83.67795,32.63211,1,WQX-137,CA,usdusd
San Antonio,TX,78239,-6,-98.36161,29.51613,1,PYJ-8910,LA,usdcad
Little River,KS,67457,-6,-98.00626,38.40198,1,JMK-834,IL,usdusd
Baltimore,MD,21203,-5,-76.62049,39.284706,1,DHI-6688,OH,usdcad
Hydeville,VT,05750,-5,-73.23273,43.619785,1,FUZ-682,NY,usdusd
Oklahoma City,OK,73198,-6,-97.40754,35.55141,1,GWV-469,MI,usdcad
South West City,MO,64863,-6,-94.60271,36.530266,1,NAI-6946,CA,usdcad
Lanesboro,PA,18827,-5,-75.58203,41.96329,1,MC-6384,IN,usdusd
Chignik Lake,AK,99548,-9,-158.74638,56.252155,1,MGM-056,MN,usdmxn
Stanford,KY,40484,-5,-84.6735,37.520836,1,BZ-895,TX,usdusd
Flanagan,IL,61740,-6,-88.85739,40.88286,1,RYJ-5393,OH,usdcad
Carrollton,MI,48724,-5,-83.92772,43.460075,1,UU-4475,CA,usdusd
Farwell,NE,68838,-6,-98.67027,41.217632,1,OE-1599,TN,usdcad
Wichita,KS,67275,-6,-97.480415,37.69359,1,IP-842,WV,usdusd
Kent,PA,15752,-5,-79.28315,40.541588,1,QZ-5137,KS,usdusd
Emmett,KS,66422,-6,-96.06113,39.317303,1,LI-536,MO,usdusd
Eden,NY,14057,-5,-78.87634,42.651775,1,EWJ-1184,OH,usdusd
Killduff,IA,50137,-6,-92.90573,41.607887,1,WZ-9802,NJ,usdusd
North Street,MI,48049,-5,-82.59251,43.03154,1,VKL-7335,PA,usdusd
Santa Clarita,CA,91382,-8,-118.29866,33.786594,1,JNL-0217,IL,usdcad
Brevig Mission,AK,99785,-9,-166.51022,65.34274,1,BPS-5854,PR,usdcad
New York,NY,10103,-5,-73.97785,40.760914,1,JUM-820,TX,usdusd
Cullman,AL,35058,-6,-86.7562,34.223732,1,IE-872,KS,usdusd
Girdler,KY,40943,-5,-83.8506,36.947113,1,EFS-7609,MS,usdmxn
Waverly,NE,68462,-6,-96.52581,40.924297,1,AB-3913,CO,usdcad
Kneeland,CA,95549,-8,-123.87189,40.691578,1,FAR-772,NY,usdusd
South Plainfield,NJ,07080,-5,-74.41401,40.580704,1,FX-250,AK,usdusd
Sun Prairie,WI,53596,-6,-89.26288,43.1924,1,PR-4255,KY,usdcad
Boston,MA,02127,-5,-71.04562,42.33499,1,VM-1364,WV,usdmxn
Troy,AL,36079,-6,-85.992,31.780848,1,FKS-0265,CT,usdmxn
Seattle,WA,98168,-8,-122.3027,47.491325,1,VW-4331,AL,usdusd
Winona,MN,55987,-6,-91.65106,44.033867,1,JDQ-5268,NY,usdusd
San Antonio,TX,78216,-6,-98.49219,29.528515,1,MVQ-992,KY,usdusd
North Platte,NE,69103,-6,-100.74691,41.046448,1,BA-447,KS,usdusd
Pittsburgh,PA,15274,-5,-80.02482,40.434437,1,LJP-9156,TX,usdmxn
New York,NY,10033,-5,-73.93496,40.848763,1,YLC-6862,RI,usdcad
Weston,NE,68070,-6,-96.78359,41.200336,1,SOL-305,PA,usdusd
Callahan,CA,96014,-8,-122.81535,41.32211,1,GYE-1999,PA,usdusd
Portland,OR,97205,-8,-122.68573,45.52054,1,XAW-3989,GA,usdcad
Vega Alta,PR,00692,-4,-66.33186,18.419666,0,GH-795,WV,usdusd
Providence,RI,02908,-5,-71.43802,41.839294,1,MFG-225,NV,usdusd
Peachland,NC,28133,-5,-80.27001,34.969887,1,ZI-875,IL,usdcad
Franklin Lakes,NJ,07417,-5,-74.20847,41.010433,1,JX-4546,CA,usdusd
Charleston,WV,25396,-5,-81.55466,38.296818,1,QA-164,MA,usdmxn
Louisville,KS,66450,-6,-96.31402,39.25183,1,ASR-1040,PA,usdcad
Boise City,OK,73933,-6,-102.54473,36.74065,1,EC-1881,IN,usdcad
Arlington,TX,76001,-6,-97.14403,32.634205,1,DEV-425,OH,usdusd
Hydesville,CA,95547,-8,-124.08412,40.546204,1,MA-625,GA,usdusd
Myrtle Beach,SC,29572,-5,-78.79097,33.765137,1,LO-855,OH,usdcad
Eros,LA,71238,-6,-92.37517,32.36156,1,WPP-4768,NC,usdcad
Presque Isle,WI,54557,-6,-89.73707,46.221043,1,NH-299,MS,usdmxn
Hammond,NY,13646,-5,-75.69227,44.44424,1,GVO-588,NV,usdusd
Sunnyvale,CA,94087,-8,-122.03602,37.35009,1,UZJ-745,FL,usdusd
Des Moines,IA,50394,-6,-93.572174,41.672688,1,GS-7778,KY,usdmxn
Stony Point,NY,10980,-5,-74.01157,41.231407,1,HR-5865,ME,usdcad
Englewood,CO,80155,-7,-104.40835,39.73875,1,VNB-9963,CO,usdcad
Albuquerque,NM,87158,-7,-106.672874,35.04434,1,QLE-757,NE,usdmxn
Oakville,TX,78060,-6,-98.0719,28.421814,1,PKY-405,WI,usdcad
Church Creek,MD,21622,-5,-76.16806,38.39367,1,AL-1875,CT,usdcad
Fredonia,NY,14063,-5,-79.3371,42.425682,1,YJ-5794,OH,usdusd
Saint Gabriel,LA,70776,-6,-91.09595,30.26461,1,EGD-283,CT,usdcad
Kenton,KY,41053,-5,-84.5205,38.944664,1,KP-5385,VA,usdusd
Register,GA,30452,-5,-81.89818,32.327217,1,HG-8829,OH,usdusd
Meckling,SD,57044,-6,-97.08438,42.84685,1,PPN-6714,MI,usdusd
Rosser,TX,75157,-6,-96.43949,32.455406,1,TJH-9148,NY,usdusd
Noble,IN,46692,-5,-85.74433,40.752777,0,SH-4181,NY,usdusd
Rocky River,OH,44116,-5,-81.84575,41.475296,1,NAM-3132,PA,usdusd
Alberta,VA,23821,-5,-77.91125,36.87229,1,IR-250,SD,usdcad
Baltimore,MD,21283,-5,-76.62049,39.284706,1,IXQ-5622,WV,usdusd
Elnora,IN,47529,-5,-87.08288,38.869877,0,KKE-0493,CA,usdusd
Benton Harbor,MI,49022,-5,-86.41801,42.10809,1,AJJ-100,NY,usdusd
Warren,MI,48089,-5,-82.99866,42.467087,1,FL-1562,KS,usdcad
Pine Bank,PA,15354,-5,-80.211334,39.870636,1,FBK-289,WV,usdusd
Olmsted,IL,62970,-6,-89.10964,37.199768,1,AON-7551,CA,usdusd
Danielson,CT,06239,-5,-71.87594,41.79911,1,NK-3121,IA,usdcad
Diller,NE,68342,-6,-96.93428,40.105724,1,ZQ-406,TX,usdcad
Ponce,PR,00733,-4,-66.61916,18.019331,0,KE-0283,KS,usdmxn
New Haven,MO,63068,-6,-91.24469,38.558838,1,DM-663,OH,usdusd
Grover Beach,CA,93433,-8,-120.61952,35.120934,1,JBG-898,SC,usdusd
Prescott Valley,AZ,86312,-7,-112.30778,34.66829,0,MW-9882,VA,usdusd
Bueche,LA,70720,-6,-91.33252,30.587305,1,TR-5322,NC,usdcad
Roanoke,VA,24010,-5,-79.95786,37.274174,1,ME-9085,NJ,usdusd
Monroe,MI,48162,-5,-83.38515,41.9409,1,KC-916,LA,usdusd
Emerson,KY,41135,-5,-83.27206,38.365097,1,MA-990,MI,usdusd
Effingham,IL,62401,-6,-88.56,39.123806,1,LMU-618,TN,usdusd
Denver,CO,80299,-7,-104.40835,39.73875,1,BZ-2288,KS,usdmxn
Eureka Springs,AR,72632,-6,-93.7476,36.39212,1,YR-9981,CO,usdcad
Las Vegas,NV,89147,-8,-115.27343,36.11306,1,CL-461,VA,usdcad
Shawnee Mission,KS,66217,-6,-94.78107,39.02163,1,EYH-2685,WV,usdusd
Houston,TX,77203,-6,-95.43424,29.83399,1,UTM-6472,KY,usdusd
Corcoran,CA,93212,-8,-119.5548,36.085342,1,DFQ-055,OH,usdusd
Avon,NY,14414,-5,-77.73372,42.899235,1,PPO-847,MI,usdcad
Buffalo,NY,14226,-5,-78.80047,42.968056,1,BM-159,MN,usdusd
White Post,VA,22663,-5,-78.12417,39.045017,1,SSL-4179,CT,usdusd
Troy,NY,12182,-5,-73.66221,42.78589,1,DN-863,NC,usdcad
Laconia,IN,47135,-5,-86.07212,38.038837,1,ON-2806,OH,usdusd
Carson City,NV,89711,-8,-119.776405,39.16783,1,SX-062,WV,usdcad
Franklin,IN,46696,-5,-86.60495,41.15689,0,DR-378,ID,usdusd
Johnson City,TN,37605,-5,-82.38379,36.315796,1,CSA-8749,VA,usdusd
Fort Lauderdale,FL,33359,-5,-80.44826,26.145723,1,AJ-445,CA,usdcad
Hartford,CT,06180,-5,-72.718834,41.791775,1,WA-829,KS,usdusd
Ellisville,MS,39437,-6,-89.21431,31.588327,1,ST-9703,GA,usdcad
Sunbury,NC,27979,-5,-76.60411,36.44051,1,WO-8754,CA,usdusd
Moorefield,WV,26836,-5,-78.97189,39.03818,1,JHE-4709,KY,usdcad
Rock Island,IL,61202,-6,-90.58714,41.46675,1,GI-8735,CA,usdusd
Swans Island,ME,04685,-5,-68.44607,44.16159,1,TX-232,IN,usdcad
Martha,OK,73556,-6,-99.39383,34.751923,1,JWO-7095,FL,usdcad
Stewarts Point,CA,95480,-8,-123.3999,38.654705,1,YTF-9807,NJ,usdcad
Stafford,CT,06075,-5,-72.30878,41.81152,1,SU-486,TX,usdusd
Seneca,SC,29672,-5,-82.94599,34.736908,1,LY-2116,CT,usdusd
Dakota,MN,55925,-6,-91.39015,43.91093,1,NWC-0752,AL,usdusd
Kingston,AR,72742,-6,-93.47918,35.992386,1,GYC-788,MN,usdusd
Saint Patrick,MO,63466,-6,-91.685104,40.431202,1,EOY-182,MO,usdusd
Centralia,IL,62801,-6,-89.1257,38.523735,1,ZWJ-6648,MT,usdusd
Birmingham,AL,35218,-6,-86.89524,33.506454,1,GY-1787,TN,usdusd
Niagara Falls,NY,14302,-5,-78.83068,43.32684,1,TB-4329,PA,usdcad
Georgetown,CO,80444,-7,-105.7258,39.694916,1,II-9344,ID,usdusd
Washington,DC,20069,-5,-77.01465,38.89331,1,MR-334,TX,usdusd
Bristol,SD,57219,-6,-97.78645,45.27847,1,KJ-938,KY,usdusd
Taunton,MN,56291,-6,-96.06801,44.598118,1,FW-585,TX,usdcad
Merkel,TX,79536,-6,-100.02753,32.47368,1,NE-6377,PA,usdmxn
Elmore,AL,36025,-6,-86.33358,32.53888,1,EW-186,MI,usdusd
Moselle,MS,39459,-6,-89.30503,31.49621,1,JIM-496,FL,usdcad
Monrovia,MD,21770,-5,-77.24861,39.35409,1,CV-533,MN,usdusd
Schofield Barracks,HI,96857,-10,-168.02182,24.859833,0,WTD-174,CA,usdusd
Hoytville,OH,43529,-5,-83.78249,41.1904,1,EFH-1481,GA,usdcad
Blacklick,OH,43004,-5,-82.8052,39.998074,1,QA-379,VA,usdmxn
Weldon,IA,50264,-6,-93.70988,40.89222,1,EJ-658,MO,usdusd
Buffalo,NY,14210,-5,-78.83139,42.866707,1,GBW-248,MO,usdusd
Naco,AZ,85620,-7,-109.91979,31.385181,0,LT-213,MA,usdcad
Granada,CO,81041,-7,-102.33025,37.962677,1,CI-967,FL,usdcad
Valley Bend,WV,26293,-5,-79.91798,38.758698,1,KOA-0504,IA,usdcad
Allison,TX,79003,-6,-100.09291,35.629032,1,NU-621,CA,usdusd
Lexington,OK,73051,-6,-97.29276,35.039066,1,GWP-999,NE,usdcad
Burlington,OK,73722,-6,-98.38429,36.920803,1,YWX-802,KS,usdusd
Tipton,OK,73570,-6,-99.12375,34.500298,1,RK-8931,CO,usdusd
Huntington,WV,25703,-5,-82.41924,38.421444,1,SZZ-327,AK,usdusd
Dunlo,PA,15930,-5,-78.71981,40.294346,1,FUZ-7471,LA,usdcad
Pittsburgh,PA,15224,-5,-79.94612,40.463463,1,CK-485,SC,usdmxn
Kenansville,NC,28349,-5,-77.94761,34.977226,1,THV-0387,IA,usdusd
Hamilton,NC,27840,-5,-77.2083,35.94874,1,UH-5339,TN,usdusd
Fayette,IA,52142,-6,-91.79794,42.834286,1,EYL-6819,ID,usdcad
Waldron,AR,72958,-6,-94.13624,34.907333,1,XRN-025,OR,usdusd
Henderson,NV,89012,-8,-115.05438,36.01758,1,KSS-5082,MS,usdusd
Blue Point,NY,11715,-5,-73.03436,40.74897,1,PZP-6858,IN,usdcad
Bowersville,OH,45307,-5,-83.72363,39.580196,1,UXQ-6800,IN,usdcad
Trimble,TN,38259,-6,-89.18203,36.19865,1,CGQ-537,GA,usdusd
Burkett,TX,76828,-6,-99.23597,32.023827,1,DV-3783,GA,usdusd
Durham,NC,27708,-5,-78.92398,36.028687,1,JG-264,PA,usdusd
La Crosse,WI,54601,-6,-91.21141,43.797115,1,ZN-177,SC,usdusd
Copan,OK,74022,-6,-95.96577,36.909077,1,QSP-9599,NY,usdusd
Port Jefferson,NY,11777,-5,-73.06222,40.946102,1,ZM-940,MO,usdcad
Faribault,MN,55021,-6,-93.28732,44.29478,1,PSE-4704,MI,usdcad
Reno,NV,89503,-8,-119.8373,39.53636,1,WD-7832,WA,usdusd
Sabana Hoyos,PR,00688,-4,-66.61348,18.40415,0,GJ-8914,CO,usdcad
Mableton,GA,30126,-5,-84.56087,33.817738,1,KQM-094,ID,usdmxn
New Berlin,PA,17855,-5,-76.985,40.88051,1,XKY-737,NY,usdusd
Seattle,WA,98117,-8,-122.37838,47.68592,1,QK-320,MS,usdcad
Chana,IL,61015,-6,-89.2128,41.982994,1,XJ-1342,VT,usdusd
San Juan,PR,00931,-4,-66.06053,18.410461,0,YYT-623,PA,usdusd
Farmington,PA,15437,-5,-79.59465,39.793095,1,ATM-872,IN,usdcad
Worthington,IA,52078,-6,-91.12294,42.398113,1,ZM-450,NY,usdusd
Raymond,NE,68428,-6,-96.82364,40.969814,1,UNI-868,UT,usdusd
Ivanhoe,VA,24350,-5,-80.99526,36.809933,1,JCA-5334,MD,usdusd
Peoria,IL,61651,-6,-89.7184,40.74418,1,FOJ-016,FL,usdusd
Bushton,KS,67427,-6,-98.39638,38.50978,1,GB-6140,OH,usdcad
Wallsburg,UT,84082,-7,-111.41809,40.37182,1,WGU-0982,OH,usdusd
Des Moines,IA,50940,-6,-93.572174,41.672688,1,TC-454,WI,usdusd
Danbury,NC,27016,-5,-80.19588,36.42918,1,MX-1996,IA,usdmxn
Iron City,TN,38463,-6,-87.62171,35.069016,1,JXS-3366,MI,usdcad
Panola,OK,74559,-6,-95.2211,34.869457,1,IK-600,TX,usdcad
Kentland,IN,47951,-6,-87.44607,40.77759,1,DDD-2727,WV,usdcad
Bexar,AR,72515,-6,-92.0417,36.293095,1,DFT-1761,NJ,usdusd
Haywood,WV,26366,-5,-80.33785,39.380096,1,THA-305,ND,usdusd
Saint Helens,KY,41368,-5,-83.64341,37.611683,1,YYL-2128,MA,usdcad
Dedham,IA,51440,-6,-94.81453,41.913692,1,WY-6553,WA,usdusd
Milan,MI,48160,-5,-83.68414,42.081364,1,BTB-3537,VA,usdcad
Kasota,MN,56050,-6,-93.95806,44.28491,1,US-0375,MI,usdcad
White Pine,TN,37890,-5,-83.29024,36.094624,1,IBI-904,IA,usdusd
Elba,NE,68835,-6,-98.61248,41.336945,1,MLG-4523,IL,usdusd
Fox Lake,WI,53933,-6,-88.90158,43.566326,1,GR-346,VA,usdusd
Horseheads,NY,14845,-5,-76.83639,42.181583,1,GUJ-106,HI,usdusd
Barnard,KS,67418,-6,-98.04615,39.18871,1,GZF-287,PR,usdusd
Bayamon,PR,00961,-4,-66.16033,18.412462,0,OYM-9419,CA,usdusd
Manokin,MD,21836,-5,-75.73441,38.073296,1,RI-154,DC,usdusd
Jigger,LA,71249,-6,-91.6919,32.138935,1,WQY-7744,GA,usdusd
Mary Alice,KY,40964,-5,-83.18345,36.842976,1,AFW-3433,MO,usdusd
East Carbon,UT,84520,-7,-110.34199,39.569595,1,LPV-805,IA,usdusd
Maryville,TN,37802,-5,-83.933815,35.728283,1,UBS-4401,LA,usdusd
Berwick,IL,61417,-6,-90.52901,40.781506,1,CZB-7735,IL,usdcad
Phoenix,AZ,85046,-7,-112.18717,33.27654,0,TN-2152,TN,usdusd
Miami,FL,33142,-5,-80.2369,25.812626,1,BGP-2192,AK,usdusd
Genoa,NE,68640,-6,-97.75199,41.44996,1,FLV-1947,MI,usdusd
Etna,NY,13062,-5,-76.38271,42.484413,1,IW-302,KS,usdcad
Bronx,NY,10499,-5,-73.840904,40.851547,1,TF-6560,WV,usdusd
Sea Isle City,NJ,08243,-5,-74.69865,39.145756,1,EVL-981,ID,usdusd
San Jose,CA,95151,-8,-121.75722,37.187347,1,UTC-902,IL,usdcad
Millsboro,PA,15348,-5,-79.99484,39.98837,1,JL-6232,TX,usdcad
Mapleton,IL,61547,-6,-89.72628,40.619175,1,DZ-223,NY,usdusd
Premont,TX,78375,-6,-98.12184,27.368433,1,YRG-825,MI,usdusd
Apache,OK,73006,-6,-98.38697,34.894962,1,AY-3068,MN,usdcad
Tolleson,AZ,85353,-7,-112.28299,33.426422,0,LP-929,SD,usdcad
Stewartstown,PA,17363,-5,-76.59359,39.76574,1,SIJ-7528,MO,usdusd
Aroda,VA,22709,-5,-78.23622,38.31255,1,DL-5645,FL,usdusd
Brighton,CO,80601,-7,-104.82407,39.97325,1,ZFA-322,FL,usdusd
Wilmington,NC,28401,-5,-77.94134,34.235218,1,QY-6285,CA,usdcad
Redfox,KY,41847,-5,-82.95449,37.21583,1,VLC-019,KY,usdusd
Timber Lake,SD,57565,-7,-101.077415,45.426655,1,PTL-9337,OH,usdusd
Panama City,FL,32404,-6,-85.56392,30.188585,1,XJL-876,VA,usdcad
Bernhards Bay,NY,13028,-5,-75.93107,43.279404,1,TNU-6982,MO,usdmxn
Vassar,KS,66543,-6,-95.61031,38.647457,1,WS-129,LA,usdusd
Barranquitas,PR,00794,-4,-66.31058,18.204294,0,PC-5123,WV,usdcad
Murfreesboro,TN,37132,-6,-86.42096,35.859566,1,PD-461,SC,usdusd
Shiocton,WI,54170,-6,-88.56461,44.506023,1,AP-3136,NV,usdcad
Montara,CA,94037,-8,-122.50819,37.53984,1,NEF-1549,KS,usdusd
Calypso,NC,28325,-5,-78.10474,35.15251,1,SPQ-644,MO,usdusd
Haywood,VA,22722,-5,-78.24197,38.45204,1,XJ-396,PA,usdusd
Farmer,OH,43520,-5,-84.631325,41.39066,1,ZB-7244,CA,usdcad
Reading,VT,05062,-5,-72.5536,43.485714,1,ST-497,MS,usdusd
Bargersville,IN,46106,-5,-86.18812,39.514023,0,BL-7708,TX,usdcad
Duncanville,TX,75137,-6,-96.91343,32.634834,1,ROB-9309,AK,usdcad
Perkins,WV,26634,-5,-80.91878,38.78615,1,FA-2859,WA,usdusd
Flemington,NJ,08822,-5,-74.85319,40.515644,1,YR-2104,NY,usdusd
Temecula,CA,92591,-8,-117.12056,33.52775,1,KCV-499,CO,usdusd
Walled Lake,MI,48390,-5,-83.47969,42.549484,1,WA-733,NV,usdmxn
Stonewall,LA,71078,-6,-93.79469,32.278423,1,HO-6773,KY,usdusd
Forks Of Salmon,CA,96031,-8,-123.20187,41.228397,1,LUB-081,CA,usdusd
Summertown,TN,38483,-6,-87.33748,35.43506,1,FND-2331,UT,usdusd
Harleyville,SC,29448,-5,-80.45186,33.23738,1,UK-5749,AZ,usdusd
Charleston,SC,29416,-5,-79.85773,32.84885,1,DC-2019,TX,usdmxn
Beverly Hills,FL,34464,-5,-82.5087,28.859285,1,LNG-0350,CA,usdusd
Clay,TX,77839,-6,-96.52667,30.341402,1,BS-825,WI,usdusd
Slaughters,KY,42456,-6,-87.49975,37.514423,1,DXH-905,SC,usdcad
Herculaneum,MO,63048,-6,-90.3902,38.261864,1,PN-856,MA,usdusd
National Park,NJ,08063,-5,-75.1802,39.867157,1,YXH-275,TX,usdcad
Nashville,TN,37213,-6,-86.76777,36.16718,1,AXA-441,IA,usdusd
Holtsville,NY,00501,-5,-72.63708,40.922325,1,QGX-5317,ID,usdusd
Rosebud,MO,63091,-6,-91.39332,38.387447,1,UEO-1134,IL,usdusd
Olympia,KY,40358,-5,-83.6848,38.057743,1,ZI-794,VA,usdcad
Orlando,FL,32891,-5,-81.26082,28.566338,1,FX-246,WY,usdmxn
Springdale,WA,99173,-8,-117.79563,48.03085,1,TFA-8635,WI,usdusd
Preble,NY,13141,-5,-76.18642,42.7707,1,NXS-860,ND,usdusd
Conklin,MI,49403,-5,-85.84983,43.125652,1,YSZ-8968,CA,usdusd
Flat Rock,OH,44828,-5,-82.86059,41.2344,1,ALO-573,CA,usdcad
Rockbridge Baths,VA,24473,-5,-79.39906,37.912975,1,EPO-6181,LA,usdcad
Fort Harrison,MT,59636,-7,-112.10446,46.62055,1,OZ-7826,OK,usdusd
Highspire,PA,17034,-5,-76.78563,40.20859,1,YVY-513,CA,usdmxn
Descanso,CA,91916,-8,-116.62459,32.890385,1,BE-5893,OH,usdmxn
Collinston,LA,71229,-6,-91.89546,32.67831,1,IY-6101,IA,usdmxn
Deer Island,OR,97054,-8,-122.90416,45.946316,1,YRG-2134,OH,usdusd
Alto,GA,30510,-5,-83.58913,34.45573,1,KTB-020,IL,usdmxn
Woonsocket,RI,02895,-5,-71.50722,42.00173,1,LL-937,PA,usdusd
South San Francisco,CA,94083,-8,-122.33482,37.381145,1,BLV-999,CA,usdmxn
Hext,TX,76848,-6,-99.52617,30.847792,1,YOA-8584,AR,usdusd
Galion,OH,44833,-5,-82.797,40.720867,1,DXB-376,OR,usdcad
Commerce,TX,75428,-6,-95.91061,33.25868,1,HD-877,DC,usdusd
Rockvale,TN,37153,-6,-86.55056,35.751015,1,LP-956,NY,usdusd
Armstrong Creek,WI,54103,-6,-88.48292,45.65571,1,XM-012,OH,usdusd
San Diego,CA,92195,-8,-116.84605,33.01693,1,HH-5305,MI,usdusd
West Burke,VT,05871,-5,-71.95414,44.673588,1,ARR-8938,NC,usdusd
Pomona Park,FL,32081,-5,-81.600105,29.50199,1,QP-677,KS,usdcad
Center Valley,PA,18034,-5,-75.41501,40.540398,1,YM-7203,VA,usdusd
Fort Wayne,IN,46861,-5,-85.07071,41.09376,0,JW-4454,TX,usdcad
Calvert,TX,77837,-6,-96.6808,30.993313,1,AUE-2368,PA,usdusd
Florence,MS,39073,-6,-90.10964,32.12563,1,RB-3912,NE,usdmxn
Westminster Station,VT,05159,-5,-72.45649,43.09397,1,XA-516,MO,usdusd
Hellier,KY,41534,-5,-82.48553,37.2701,1,ZXA-108,IL,usdusd
Inkom,ID,83245,-7,-112.23562,42.79471,1,UYE-683,WV,usdusd
Riviera,TX,78379,-6,-97.78433,27.299072,1,ORT-4461,ID,usdcad
Taylorsville,MS,39168,-6,-89.41533,31.816868,1,PBK-407,TX,usdcad
Veribest,TX,76886,-6,-100.49491,31.349348,1,XD-325,MD,usdusd
Detroit,MI,48206,-5,-83.10849,42.375786,1,PMD-449,TX,usdusd
Windsor,CO,80551,-7,-104.88512,40.464092,1,FN-090,SD,usdusd
Lynx,OH,45650,-5,-83.40878,38.746506,1,IT-5446,FL,usdusd
Ostrander,MN,55961,-6,-92.46452,43.6122,1,XU-7267,WA,usdusd
Mitchellville,TN,37119,-6,-86.539024,36.63198,1,OS-533,MO,usdcad
Ocean City,NJ,08226,-5,-74.59381,39.26537,1,SL-2467,MA,usdusd
Walcott,IA,52773,-6,-90.75849,41.617233,1,YKD-3900,OR,usdcad
Rolling Meadows,IL,60008,-6,-88.02508,42.07506,1,AC-6489,WA,usdusd
Stonington,CT,06378,-5,-71.91317,41.351307,1,AIL-3373,TN,usdcad
Hawkeye,IA,52147,-6,-91.95858,42.960175,1,FW-2153,KY,usdmxn
Springfield,IL,62715,-6,-89.60602,39.74946,1,SS-890,NC,usdusd
Ranger,WV,25557,-5,-82.15143,38.106003,1,QG-8129,MA,usdmxn
Roxobel,NC,27872,-5,-77.24791,36.20351,1,VDE-514,VA,usdcad
Foster,RI,02825,-5,-71.72021,41.785152,1,OWV-5539,IL,usdusd
Carson City,NV,89703,-8,-119.79382,39.164967,1,GS-805,GA,usdusd
Guston,KY,40142,-5,-86.20383,37.894073,1,NP-4865,VA,usdusd
Borup,MN,56519,-6,-96.51487,47.158016,1,WM-4920,KS,usdusd
Davenport,WA,99122,-8,-118.18938,47.671143,1,EII-401,TX,usdmxn
Old Zionsville,PA,18068,-5,-75.47115,40.693375,1,CN-811,VT,usdusd
Cleveland,OH,44129,-5,-81.73575,41.3977,1,XM-7363,SD,usdusd
Natchez,MS,39122,-6,-91.4044,31.470602,1,QUN-8604,WI,usdusd
Westby,MT,59275,-7,-104.20951,48.887447,1,PGV-292,SD,usdcad
Bloomingdale,IL,60117,-6,-88.088715,41.83968,1,LOV-377,CT,usdusd
Cleveland,TX,77328,-6,-94.80406,30.188885,1,FI-507,CA,usdcad
Keasbey,NJ,08832,-5,-74.30325,40.517857,1,MJM-130,NY,usdcad
Clarksboro,NJ,08020,-5,-75.2211,39.800957,1,UJ-710,OR,usdcad
Prescott,KS,66767,-6,-94.69495,38.066975,1,VY-193,CT,usdusd
Vanduser,MO,63784,-6,-89.6911,36.990215,1,HAY-524,NY,usdusd
Davenport,NE,68335,-6,-97.81152,40.29735,1,QI-020,CA,usdusd
Valier,IL,62891,-6,-89.04226,38.01492,1,CN-158,WA,usdcad
Kalispell,MT,59903,-7,-114.42965,48.22372,1,YT-075,CO,usdusd
Cass Lake,MN,56633,-6,-94.58834,47.373207,1,PMC-6909,NC,usdusd
Wallburg,NC,27373,-5,-80.27596,35.882942,1,FK-2519,MA,usdcad
Dearborn,MI,48121,-5,-83.150826,42.239933,1,CQ-072,ND,usdusd
Leon,OK,73441,-6,-97.42814,33.877678,1,QU-9629,FL,usdcad
Tuscola,MI,48769,-5,-83.65736,43.32705,1,TWX-5778,LA,usdmxn
Antelope,OR,97001,-8,-120.67244,44.904053,1,LKQ-2337,WV,usdcad
Crystal Falls,MI,49920,-6,-88.35677,46.12624,1,KSN-3883,CA,usdusd
Woodlyn,PA,19094,-5,-75.34542,39.87461,1,OTZ-2638,SC,usdcad
Little Rock,AR,72212,-6,-92.40807,34.783504,1,KZ-5443,NY,usdusd
Sioux City,IA,51104,-6,-96.40292,42.524143,1,IE-8235,IN,usdusd
Abilene,TX,79608,-6,-99.89074,32.30213,1,VI-949,KS,usdusd
Loretto,MN,55599,-6,-93.47188,45.015915,1,SFV-2518,VT,usdusd
Prospect Hill,NC,27314,-5,-79.19809,36.285007,1,ZA-8190,CO,usdcad
Missoula,MT,59808,-7,-114.07639,46.92275,1,BF-721,WA,usdusd
Portland,OR,97222,-8,-122.61833,45.442635,1,REE-245,TX,usdusd
Athens,GA,30605,-5,-83.34529,33.925083,1,VR-499,OH,usdcad
Detroit,ME,04929,-5,-69.30376,44.785927,1,ZNJ-4935,TX,usdusd
Hillsborough,NC,27278,-5,-79.09459,36.079727,1,SP-0815,WA,usdmxn
Webster,IA,52355,-6,-92.17863,41.45974,1,DF-2578,OH,usdcad
Fosters,AL,35463,-6,-87.68988,33.081287,1,TKM-2896,TX,usdusd
Playa Del Rey,CA,90296,-8,-118.29866,33.786594,1,HAD-9215,IN,usdcad
University Center,MI,48710,-5,-83.99433,43.556576,1,YBV-241,VT,usdusd
Atlanta,GA,30375,-5,-84.47405,33.84437,1,NXF-163,OK,usdusd
Saint Thomas,MO,65076,-6,-92.19491,38.36528,1,KS-0473,TN,usdcad
Romeoville,IL,60446,-6,-88.09934,41.64273,1,LE-025,OH,usdcad
Shohola,PA,18458,-5,-74.92544,41.40859,1,DA-5181,WI,usdcad
Beyer,PA,16211,-5,-79.12945,40.64003,1,RGQ-585,NM,usdusd
Lake Zurich,IL,60047,-6,-88.05859,42.19996,1,WD-198,LA,usdcad
Van,WV,25206,-5,-81.71468,37.972885,1,HM-7745,CA,usdusd
Humacao,PR,00792,-4,-65.7885,18.13803,0,DST-1754,NY,usdusd
Carrabelle,FL,32322,-5,-84.6407,29.912584,1,AUW-8624,NJ,usdusd
New Washington,IN,47162,-5,-85.49124,38.548695,1,MHX-190,IN,usdcad
Costilla,NM,87524,-7,-105.5809,36.959633,1,WKR-0179,PA,usdcad
Torch,OH,45781,-5,-82.01013,39.368237,1,HQS-014,MN,usdmxn
Atwood,IL,61913,-6,-88.45309,39.80993,1,VCN-2749,UT,usdusd
Concord,CA,94519,-8,-122.01437,37.984272,1,FQ-111,NM,usdusd
Van Vleet,MS,38877,-6,-88.8988,33.987087,1,FRT-6360,PA,usdusd
Mesa,AZ,85212,-7,-111.64535,33.35035,0,PUL-137,LA,usdcad
Monticello,MN,55584,-6,-93.8881,45.200874,1,OY-2428,CA,usdmxn
Jonesboro,GA,30238,-5,-84.37871,33.49348,1,FH-6296,FL,usdusd
Kenmare,ND,58746,-6,-102.08301,48.719925,1,VN-2418,TX,usdmxn
Stafford,VA,22555,-5,-77.460815,38.417274,1,BG-0398,TX,usdusd
Chocorua,NH,03817,-5,-71.22069,43.878113,1,PEQ-9718,UT,usdusd
Vivian,SD,57576,-6,-100.2916,43.93413,1,MY-2574,AR,usdmxn
Sharps Chapel,TN,37866,-5,-83.82637,36.355255,1,HK-437,KY,usdcad
Bell,CA,90201,-8,-118.17385,33.972813,1,EJF-9210,TX,usdcad
Indian Trail,NC,28079,-5,-80.62098,35.10521,1,XL-0874,CO,usdusd
Almena,KS,67622,-6,-99.72471,39.891365,1,LHP-0682,NY,usdusd
Ansonia,CT,06401,-5,-73.07446,41.34269,1,SKK-4720,WA,usdusd
Fort Wainwright,AK,99703,-9,-147.6265,64.82716,1,XD-6482,OH,usdcad
Lincoln,NE,68504,-6,-96.65563,40.8442,1,XF-794,NJ,usdusd
College Station,TX,77841,-6,-96.32704,30.57258,1,LQ-9089,GA,usdusd
Kissimmee,FL,34741,-5,-81.42159,28.301788,1,MG-4668,NY,usdcad
Jefferson City,MO,65102,-6,-92.249344,38.530922,1,UYR-0071,KY,usdusd
Wadena,IA,52169,-6,-91.65943,42.845036,1,RC-9878,PA,usdcad
Bledsoe,TX,79314,-6,-103.01952,33.616833,1,VFB-116,PA,usdusd
Fort Washakie,WY,82514,-7,-108.92886,42.971973,1,CJ-8830,CA,usdusd
Fall Creek,WI,54742,-6,-91.29172,44.76368,1,XF-552,PA,usdcad
Limeport,PA,18060,-5,-75.57864,40.53484,1,QN-604,MO,usdusd
Palm Bay,FL,32911,-5,-80.68616,28.306726,1,CP-000,AR,usdcad
Rowlett,TX,75088,-6,-96.5497,32.897457,1,ZHJ-726,MI,usdusd
Cleveland,OH,44127,-5,-81.65009,41.46995,1,QR-741,MO,usdusd
Nokomis,IL,62075,-6,-89.2864,39.29977,1,HM-5768,WI,usdusd
Holland,MI,49422,-5,-86.44475,42.985596,1,NND-6757,PA,usdusd
Woodrow,CO,80757,-7,-103.61156,39.836887,1,LW-9246,SC,usdcad
Columbus,MS,39701,-6,-88.43746,33.492107,1,VFM-138,ME,usdcad
Fort Smith,AR,72913,-6,-94.23816,35.191048,1,LWU-4769,WI,usdcad
Lake Mills,WI,53551,-6,-88.90838,43.08276,1,OQ-019,CO,usdusd
Syracuse,NY,13207,-5,-76.16406,43.020115,1,DJJ-817,IA,usdusd
Brodhead,WI,53520,-6,-89.37364,42.613106,1,ZRZ-603,TX,usdcad
Ivoryton,CT,06442,-5,-72.44392,41.3451,1,QOH-3419,SD,usdcad
Grandfield,OK,73546,-6,-98.72275,34.239155,1,IM-546,AK,usdusd
Winona,OH,44493,-5,-80.89671,40.828583,1,LSB-5223,CA,usdusd
Vance,MS,38964,-6,-90.39276,34.08746,1,HLW-0521,KS,usdusd
Houston,TX,77086,-6,-95.49556,29.92098,1,LUN-9905,NJ,usdcad
Los Angeles,CA,90017,-8,-118.26434,34.052563,1,YC-8530,KS,usdusd
Bellevue,TX,76228,-6,-98.07694,33.586754,1,FRG-6041,TN,usdusd
Tenafly,NJ,07670,-5,-73.96482,40.92169,1,ORF-3276,WI,usdusd
Mobile,AL,36618,-6,-88.16845,30.728489,1,JUL-562,VA,usdusd
Websterville,VT,05678,-5,-72.46942,44.158978,1,KIB-3722,MD,usdmxn
Twin City,GA,30471,-5,-82.17048,32.547215,1,BS-622,PA,usdmxn
Chandler,AZ,85240,-7,-111.8588,33.22298,0,WK-089,OH,usdusd
Lake Ariel,PA,18436,-5,-75.39395,41.426197,1,FFN-002,NJ,usdusd
Lafayette,OR,97127,-8,-123.11304,45.2455,1,MHT-3049,MA,usdcad
Hatton,WA,99332,-8,-118.82892,46.776386,1,ZVB-785,WI,usdusd
Verden,OK,73092,-6,-98.08247,35.109276,1,JVP-642,IN,usdusd
Lyburn,WV,25632,-5,-81.91651,37.779198,1,QE-918,NV,usdusd
Penhook,VA,24137,-5,-79.63536,36.947422,1,ZE-6627,NY,usdcad
Richton Park,IL,60471,-6,-87.72134,41.483845,1,PS-949,NE,usdusd
Philadelphia,MO,63463,-6,-91.74251,39.814354,1,AAF-5780,FL,usdusd
Clinton,MA,01510,-5,-71.68482,42.418835,1,IBO-9047,FL,usdusd
Gordon,TX,76453,-6,-98.36399,32.572617,1,PZE-2870,OH,usdusd
Tyler,TX,75799,-6,-95.2899,32.411236,1,RCD-740,OR,usdusd
Yates,MI,49652,-5,-85.77231,43.86742,1,EMT-172,VA,usdcad
Bejou,MN,56516,-6,-95.98766,47.4514,1,JAO-565,IA,usdusd
Rosine,KY,42370,-6,-86.74121,37.44868,1,LRD-382,TX,usdusd
North Dighton,MA,02764,-5,-71.15125,41.85156,1,CA-2410,PA,usdusd
Pittsburgh,PA,15298,-5,-79.939476,40.420017,1,CVD-4793,PA,usdusd
Meridale,NY,13806,-5,-74.92561,42.183044,1,GX-188,LA,usdcad
Marshallville,GA,31507,-5,-83.944336,32.452927,1,XU-579,MN,usdcad
Lake Butler,FL,32054,-5,-82.38103,30.005135,1,JLK-347,OK,usdcad
Yakima,WA,98909,-8,-120.794975,46.63754,1,NO-2445,VA,usdusd
Pierson,MI,49339,-5,-85.49536,43.335472,1,NJM-069,OH,usdcad
Pomona,NJ,08240,-5,-74.55434,39.487717,1,CJ-241,CO,usdcad
Starkville,MS,39760,-6,-88.83216,33.459923,1,ZWS-560,VA,usdcad
Beach Lake,PA,18405,-5,-75.10381,41.598907,1,BT-7458,KS,usdusd
Bancroft,NE,68004,-6,-96.62313,42.009506,1,YNR-998,MN,usdusd
Cottageville,SC,29435,-5,-80.47925,32.9764,1,XME-867,GA,usdusd
Moab,UT,84532,-7,-109.49392,38.572777,1,WP-2944,TX,usdusd
Orem,UT,84058,-7,-111.71067,40.278088,1,NM-4434,IA,usdusd
Boulder,CO,80310,-7,-105.373505,40.087833,1,ZV-9557,MN,usdusd
Moshannon,PA,16859,-5,-78.024,41.0448,1,FV-167,WV,usdusd
Bethesda,MD,20814,-5,-77.10185,38.99976,1,HX-6799,NJ,usdcad
Spokane,WA,99228,-8,-117.43174,47.65357,1,YM-758,KY,usdusd
East Orange,NJ,07018,-5,-74.21897,40.75555,1,XZX-7470,TN,usdusd
Clinton Township,MI,48038,-5,-82.94459,42.603172,1,YBK-5681,WA,usdusd
Syracuse,KS,67878,-7,-101.80781,38.022873,1,HA-934,WA,usdusd
Athena,OR,97813,-8,-118.4966,45.81667,1,GQX-2217,FL,usdusd
Mascotte,FL,34753,-5,-81.89038,28.58319,1,RRP-7032,TX,usdcad
Lawrence,MA,01842,-5,-70.87912,42.635445,1,DJ-7327,IA,usdusd
Wedowee,AL,36278,-6,-85.509,33.338852,1,DS-3766,SC,usdusd
Phenix,VA,23959,-5,-78.77182,37.094315,1,VLF-767,IA,usdcad
Braddyville,IA,51631,-6,-95.00942,40.6157,1,PR-8077,OH,usdcad
East Butler,PA,16029,-5,-79.84392,40.877705,1,GM-398,CT,usdmxn
Oklahoma City,OK,73120,-6,-97.56496,35.579487,1,NW-197,DC,usdcad
Sinai,SD,57061,-6,-97.04171,44.245064,1,TCM-865,DC,usdcad
Quaker Street,NY,12141,-5,-74.185394,42.73177,1,YY-771,PA,usdcad
Hamilton,OH,45020,-5,-84.575745,39.440956,1,ZP-664,KS,usdusd
Fort Buchanan,PR,00934,-4,-66.12198,18.413511,0,XB-6450,TX,usdusd
Sutton,NE,68979,-6,-97.85433,40.603947,1,OC-5646,MO,usdusd
Siren,WI,54872,-6,-92.39152,45.780792,1,RMN-2755,MS,usdusd
Clarita,OK,74535,-6,-96.43356,34.488403,1,IX-6660,AL,usdcad
Sharon,CT,06069,-5,-73.46331,41.866222,1,OH-072,IL,usdcad
Boaz,KY,42027,-6,-88.63778,36.92516,1,OXF-472,MO,usdusd
Gardners,PA,17324,-5,-77.22858,40.030926,1,USK-2564,TX,usdusd
Mayo,MD,21106,-5,-76.58093,38.971474,1,JJ-6467,OK,usdcad
Alamogordo,NM,88311,-7,-105.612595,32.695545,1,QGJ-497,PA,usdcad
Axson,GA,31624,-5,-82.71029,31.297882,1,WU-9075,VA,usdusd
Wolcott,IN,47995,-5,-87.03629,40.758186,0,JEE-7689,CA,usdusd
Los Angeles,CA,90066,-8,-118.43083,34.00201,1,EVM-124,IA,usdusd
Shawville,PA,16873,-5,-78.4224,40.989117,1,GU-033,WI,usdmxn
Wilburton,OK,74578,-6,-95.29859,34.88602,1,RQ-135,OH,usdusd
Lehi,UT,84043,-7,-111.89052,40.36665,1,DL-0445,IN,usdusd
San Jose,CA,95108,-8,-121.70533,37.189396,1,CNG-3595,IL,usdusd
Marion,CT,06444,-5,-72.718834,41.791775,1,YMG-7512,MI,usdmxn
Windsor,WI,53598,-6,-89.34203,43.21352,1,KVL-325,WI,usdusd
Etowah,TN,37331,-5,-84.53015,35.325993,1,JX-974,FL,usdusd
Hartford,CT,06146,-5,-72.718834,41.791775,1,PNG-539,PR,usdusd
Duluth,GA,30096,-5,-84.15118,33.9794,1,XZ-7570,SD,usdusd
Flagler Beach,FL,32136,-5,-81.13316,29.47033,1,CHM-596,PA,usdusd
Represa,CA,95671,-8,-121.44443,38.37741,1,HZR-2842,WV,usdusd
Indianapolis,IN,46277,-5,-86.132835,39.77949,0,TMU-645,NY,usdcad
Andover,NY,14806,-5,-77.79265,42.157536,1,XJ-0518,DC,usdusd
Boulder,CO,80307,-7,-105.373505,40.087833,1,FCB-6173,CA,usdusd
Hop Bottom,PA,18824,-5,-75.7846,41.708206,1,YOW-1537,AL,usdusd
Mount Calm,TX,76673,-6,-96.89776,31.74658,1,UX-4259,CA,usdmxn
Mapleton,UT,84664,-7,-111.56665,40.123394,1,TDU-511,PA,usdcad
Osage,WV,26543,-5,-80.0072,39.660625,1,LIM-455,AR,usdcad
Waverly,WA,99039,-8,-117.24498,47.329704,1,LD-797,TX,usdusd
Leiters Ford,IN,46945,-5,-86.206924,41.04099,0,OJF-564,KY,usdusd
Thomasville,NC,27360,-5,-80.08603,35.871,1,NWH-893,WY,usdcad
Finley,ND,58230,-6,-97.80427,47.475796,1,KTU-114,CO,usdusd
Fresno,CA,93728,-8,-119.81022,36.7586,1,LR-653,CA,usdcad
Scarborough,ME,04070,-5,-70.27364,43.576984,1,YRV-5686,DC,usdusd
Hope,MN,56046,-6,-93.27402,43.955105,1,HAP-985,PA,usdcad
Logan,OH,43138,-5,-82.40801,39.53097,1,DYX-8203,AL,usdcad
Eunice,NM,88231,-7,-103.23598,32.439762,1,XV-624,MO,usdcad
New York,NY,10003,-5,-73.98935,40.73251,1,ZYX-463,AL,usdusd
Lincoln University,PA,19352,-5,-75.8944,39.783676,1,PY-087,MD,usdusd
Redding,CT,06896,-5,-73.39857,41.301006,1,MDK-0066,OH,usdusd
Mayo,SC,29368,-5,-81.99022,34.94924,1,CVC-200,MD,usdcad
Pinecrest,CA,95364,-8,-119.89619,38.27533,1,LJD-2768,GA,usdusd
Harriman,NY,10926,-5,-74.14049,41.299335,1,XNI-0650,AZ,usdusd
Dallas,TX,75303,-6,-96.777626,32.76727,1,UQO-2651,WA,usdusd
Clarksville,MO,63336,-6,-90.93137,39.35409,1,RRS-116,TX,usdusd
Richmond,VA,23276,-5,-77.49316,37.524246,1,GR-995,NC,usdcad
Farley,MO,64028,-6,-94.83016,39.283928,1,CUA-395,IN,usdcad
Bend,OR,97701,-8,-121.29769,44.091255,1,MCQ-3622,IL,usdusd
Maple Hill,KS,66507,-6,-96.0343,39.07605,1,DE-646,KY,usdusd
Midfield,TX,77458,-6,-96.2147,28.939249,1,YHT-325,TX,usdmxn
Salt Lake City,UT,84128,-7,-112.04004,40.694744,1,GXV-4498,CA,usdcad
Schulter,OK,74460,-6,-95.9576,35.51833,1,YUN-9713,KS,usdcad
Phoenix,AZ,85018,-7,-111.98603,33.498077,0,XP-4646,UT,usdcad
Alhambra,CA,91899,-8,-118.29866,33.786594,1,EO-287,ID,usdcad
Marshfield,VT,05658,-5,-72.34925,44.353825,1,TKX-3923,OH,usdcad
Lawrenceburg,TN,38464,-6,-87.37522,35.259613,1,PQ-414,IN,usdusd
Bricelyn,MN,56014,-6,-93.81676,43.589603,1,ZR-0548,IL,usdusd
Barre,MA,01005,-5,-72.10443,42.412094,1,PO-724,KS,usdusd
Bozman,MD,21612,-5,-76.27279,38.747963,1,RUS-4002,AL,usdcad
Costa,WV,25051,-5,-81.70438,38.16166,1,ADL-108,IA,usdusd
National Stock Yards,IL,62071,-6,-90.16391,38.6516,1,QAJ-0591,MN,usdmxn
Sabana Grande,PR,00637,-4,-66.94864,18.073078,0,GE-9525,TX,usdusd
Dawson,MN,56232,-6,-96.04823,44.93237,1,SX-7411,VA,usdusd
Naranjito,PR,00719,-4,-66.25098,18.29457,0,IM-5128,MI,usdusd
Bear Creek,NC,27207,-5,-79.38984,35.61384,1,VF-6901,AR,usdusd
Adona,AR,72001,-6,-92.88762,35.058502,1,UBX-4408,FL,usdcad
Sheridan,TX,77475,-6,-96.65185,29.488245,1,LTJ-729,VT,usdcad
Coto Laurel,PR,00644,-4,-66.55218,18.049578,0,IGD-5768,PR,usdmxn
Alicia,AR,72410,-6,-91.07664,35.930405,1,IU-0696,VA,usdcad
Nashville,TN,37219,-6,-86.78172,36.166805,1,ZCF-0789,CA,usdcad
Parks,NE,69041,-7,-101.7201,40.133488,1,WG-6032,ME,usdmxn
Souris,ND,58783,-6,-100.76402,48.900963,1,YJC-4041,MA,usdusd
Dallas,TX,75261,-6,-96.777626,32.76727,1,LRS-419,GA,usdcad
Thompson Falls,MT,59873,-7,-115.23463,47.71021,1,ZG-443,VA,usdmxn
Ho-Ho-Kus,NJ,07676,-5,-74.0613,40.98951,1,DA-464,WV,usdusd
Burkesville,KY,42717,-6,-85.39971,36.765984,1,DV-106,IL,usdcad
Manhattan Beach,CA,90267,-8,-118.29866,33.786594,1,FC-039,TX,usdusd
Spring Church,PA,15686,-5,-79.42092,40.60897,1,EE-2611,WV,usdusd
Carlton,OR,97111,-8,-123.19334,45.28775,1,ZRR-322,MA,usdcad
Edgewood,TX,75117,-6,-95.86881,32.696777,1,WBZ-7469,TX,usdusd
Manning,OR,97125,-8,-123.22518,45.662197,1,LC-221,NM,usdcad
Sisseton,SD,57262,-6,-97.04528,45.667564,1,XI-0630,NJ,usdusd
Mount Tremper,NY,12457,-5,-74.23905,42.03854,1,PP-161,CA,usdusd
Blythewood,SC,29016,-5,-80.98653,34.200043,1,YH-413,MD,usdusd
Kildare,TX,75562,-6,-94.25152,32.94136,1,HA-016,MO,usdusd
O Kean,AR,72449,-6,-90.81515,36.1673,1,HLA-281,HI,usdusd
Slidell,LA,70459,-6,-89.881256,30.42551,1,DF-3162,OH,usdmxn
Reyno,AR,72462,-6,-90.75676,36.362896,1,XG-953,AZ,usdcad
Falls City,NE,68355,-6,-95.58631,40.097218,1,YO-487,ND,usdusd
Albuquerque,NM,87114,-7,-106.67336,35.196445,1,YVN-243,IL,usdusd
White City,KS,66872,-6,-96.73809,38.79144,1,YQL-7679,IL,usdmxn
Derby,KS,67037,-6,-97.25167,37.557434,1,MUS-0421,NV,usdusd
Leighton,AL,35646,-6,-87.53577,34.66032,1,PR-3468,NH,usdusd
South Gate,CA,90280,-8,-118.1949,33.944263,1,DHG-556,WY,usdusd
Goleta,CA,93116,-8,-119.84856,34.262833,1,VBG-5258,NY,usdusd
Thorn Hill,TN,37881,-5,-83.34113,36.40703,1,VAN-2673,OH,usdusd
Richland,NJ,08350,-5,-74.87045,39.490772,1,FGG-8960,TN,usdusd
Burgess,VA,22432,-5,-76.35637,37.86055,1,GB-295,OR,usdcad
Menifee,CA,92584,-8,-117.18987,33.66035,1,CX-0715,AK,usdcad
Galatia,IL,62935,-6,-88.62298,37.836536,1,OO-2570,WV,usdusd
New Bedford,PA,16140,-5,-80.50393,41.0981,1,UG-1823,CT,usdusd
Glen Ullin,ND,58631,-6,-101.83368,46.75944,1,NO-117,NY,usdcad
Cheltenham,MD,20623,-5,-76.83075,38.74887,1,CEX-868,IL,usdusd
Arlington,VA,22212,-5,-77.11295,38.88081,1,TA-8412,MO,usdusd
Boston,MA,02201,-5,-70.91963,42.338947,1,FH-6556,IA,usdusd
Ryan,IA,52330,-6,-91.49604,42.338696,1,WYI-891,HI,usdusd
